SchName,name,subcategory,latitude_node,longitude_node,is_business,is_food,longitude_neighborhood,latitude_neighborhood
אזור תעשיה מפרץ,EVENT,restaurant,35.0551079,32.8096712,True,True,35.055518134725375,32.813367547382306
אזור תעשיה מפרץ,,supermarket,35.0571649,32.8084011,True,False,35.055518134725375,32.813367547382306
אזור תעשיה מפרץ,Max Stock,variety_store,35.0546164,32.8177899,True,False,35.055518134725375,32.813367547382306
אזור תעשיה מפרץ,יינות ביתן (סגור),supermarket,35.067036,32.810224,True,False,35.055518134725375,32.813367547382306
אזור תעשיה מפרץ,מרכז קניות מסחרי I Way,mall,35.070552,32.812313,False,False,35.055518134725375,32.813367547382306
אזור תעשיה מפרץ,משרד הרישוי,government,35.0514139,32.8024872,False,False,35.055518134725375,32.813367547382306
אזור תעשיה מפרץ,אגד - מתחם קריות,bus_station,35.0520399,32.8174154,False,False,35.055518134725375,32.813367547382306
אזור תעשיה מפרץ,אייבורי הקריות,computer,35.0534825,32.8078396,True,False,35.055518134725375,32.813367547382306
אזור תעשיה מפרץ,Auto Depot,car_parts,35.0567488,32.8097428,True,False,35.055518134725375,32.813367547382306
אזור תעשיה מפרץ,Eldan,car_rental,35.060072,32.8064998,True,False,35.055518134725375,32.813367547382306
אזור תעשיה מפרץ,Hertz,car_rental,35.0588323,32.8063296,True,False,35.055518134725375,32.813367547382306
אזור תעשיה מפרץ,Одеяло,furniture,35.0539991,32.8085909,True,False,35.055518134725375,32.813367547382306
אזור תעשיה מפרץ,תמנונ,clothes,35.0729026,32.81149,True,False,35.055518134725375,32.813367547382306
אזור תעשיה מפרץ,מחסני תאורה,lighting,35.0721207,32.8122415,False,False,35.055518134725375,32.813367547382306
אזור תעשיה מפרץ,עד העצם,restaurant,35.0720927,32.8123002,True,True,35.055518134725375,32.813367547382306
אזור תעשיה מפרץ,Big Electric,electronics,35.0721815,32.8121809,True,False,35.055518134725375,32.813367547382306
אזור תעשיה מפרץ,Select,clothes,35.0722714,32.8121099,True,False,35.055518134725375,32.813367547382306
אזור תעשיה מפרץ,Pizza Hut,restaurant,35.0717854,32.8119259,True,True,35.055518134725375,32.813367547382306
אזור תעשיה מפרץ,FOX,clothes,35.0725881,32.8118778,True,False,35.055518134725375,32.813367547382306
אזור תעשיה מפרץ,Castro,clothes,35.0723919,32.8120257,True,False,35.055518134725375,32.813367547382306
אזור תעשיה מפרץ,פרפקט מותגים +Snickers,clothes,35.0728556,32.8114416,True,False,35.055518134725375,32.813367547382306
אזור תעשיה מפרץ,Renuar,clothes,35.0725992,32.8111931,True,False,35.055518134725375,32.813367547382306
אזור תעשיה מפרץ,Super-Pharm,pharmacy,35.0723532,32.8109794,True,False,35.055518134725375,32.813367547382306
אזור תעשיה מפרץ,מחסני חשמל,electronics,35.0722781,32.8109365,True,False,35.055518134725375,32.813367547382306
אזור תעשיה מפרץ,Delta,clothes,35.0721413,32.8108126,True,False,35.055518134725375,32.813367547382306
אזור תעשיה מפרץ,Gali,clothes,35.0719589,32.8106638,True,False,35.055518134725375,32.813367547382306
אזור תעשיה מפרץ,XO - ליקר מרקט,alcohol,35.0709048,32.8112702,False,False,35.055518134725375,32.813367547382306
אזור תעשיה מפרץ,גרעיני עפולה החמניה,nuts,35.0707734,32.8111439,False,False,35.055518134725375,32.813367547382306
אזור תעשיה מפרץ,Mobile Star,mobile_phone,35.0706929,32.8110583,True,False,35.055518134725375,32.813367547382306
אזור תעשיה מפרץ,DAR,car,35.0701618,32.8098996,False,False,35.055518134725375,32.813367547382306
אזור תעשיה מפרץ,הילה,jewelry,35.0700465,32.8098037,True,False,35.055518134725375,32.813367547382306
אזור תעשיה מפרץ,Hair Center,cosmetics,35.0692405,32.8097541,True,False,35.055518134725375,32.813367547382306
אזור תעשיה מפרץ,,fuel,35.0690943,32.809611,False,False,35.055518134725375,32.813367547382306
אזור תעשיה מפרץ,חרש עץ,craft,35.0687322,32.8094126,True,False,35.055518134725375,32.813367547382306
אזור תעשיה מפרץ,פולק,hardware,35.0684077,32.8090745,True,False,35.055518134725375,32.813367547382306
אזור תעשיה מפרץ,Moshe Alul,cosmetics,35.0681904,32.8089437,True,False,35.055518134725375,32.813367547382306
אזור תעשיה מפרץ,Constructa,hardware,35.0675762,32.8086304,True,False,35.055518134725375,32.813367547382306
אזור תעשיה מפרץ,להט,hardware,35.0674501,32.8085875,True,False,35.055518134725375,32.813367547382306
אזור תעשיה מפרץ,חשמל ישיר,electronics,35.0670987,32.8083463,True,False,35.055518134725375,32.813367547382306
אזור תעשיה מפרץ,הוילוניה,studio,35.0658354,32.8080239,False,False,35.055518134725375,32.813367547382306
אזור תעשיה מפרץ,מדיה מחשבים,computer,35.0657093,32.8079766,True,False,35.055518134725375,32.813367547382306
אזור תעשיה מפרץ,ענק הוילונות,curtain,35.065468,32.8079022,True,False,35.055518134725375,32.813367547382306
אזור תעשיה מפרץ,גלגלים מערכות הנעה,hardware,35.0653338,32.8078819,True,False,35.055518134725375,32.813367547382306
אזור תעשיה מפרץ,גיאליין,furniture,35.0650763,32.8078594,True,False,35.055518134725375,32.813367547382306
אזור תעשיה מפרץ,אייס,hardware,35.0729815,32.8116829,True,False,35.055518134725375,32.813367547382306
אזור תעשיה מפרץ,,bakery,35.0545772,32.8058201,True,True,35.055518134725375,32.813367547382306
אזור תעשיה מפרץ,תחנת דלק מיקה ודור אל,fuel,35.0597118,32.8083608,False,False,35.055518134725375,32.813367547382306
אזור תעשיה מפרץ,Burger Ranch,yes,35.0710299,32.8112352,False,False,35.055518134725375,32.813367547382306
אזור תעשיה מפרץ,פעמית סטור,plastics,35.0710625,32.8112064,True,False,35.055518134725375,32.813367547382306
אזור תעשיה מפרץ,מחסני מזון,supermarket,35.0715745,32.810799,True,False,35.055518134725375,32.813367547382306
אזור תעשיה מפרץ,Aeroflex,bed,35.0715142,32.8108475,True,False,35.055518134725375,32.813367547382306
אזור תעשיה מפרץ,H&O,clothes,35.0713518,32.8109721,True,False,35.055518134725375,32.813367547382306
אזור תעשיה מפרץ,KIWI,clothes,35.0712458,32.8110544,True,False,35.055518134725375,32.813367547382306
אזור תעשיה מפרץ,ארנקי אולגה,yes,35.0711909,32.8111063,False,False,35.055518134725375,32.813367547382306
אזור תעשיה מפרץ,אופטיקה הלפרין,optician,35.071164,32.8111254,True,False,35.055518134725375,32.813367547382306
אזור תעשיה מפרץ,ארנקי אולגה,yes,35.0711386,32.8111446,False,False,35.055518134725375,32.813367547382306
אזור תעשיה מפרץ,שקם אלקטריק,electronics,35.0710928,32.8111867,True,False,35.055518134725375,32.813367547382306
אזור תעשיה מפרץ,Aeroflex Home,home,35.0720401,32.8107269,True,False,35.055518134725375,32.813367547382306
אזור תעשיה מפרץ,MINI SO,home,35.0722146,32.8108833,True,False,35.055518134725375,32.813367547382306
אזור תעשיה מפרץ,TWENTYFOURSEVEN,clothes,35.0726862,32.8112828,True,False,35.055518134725375,32.813367547382306
אזור תעשיה מפרץ,ONOT & Jump,clothes,35.0727432,32.8113395,True,False,35.055518134725375,32.813367547382306
אזור תעשיה מפרץ,rebar,restaurant,35.0729105,32.8112878,True,True,35.055518134725375,32.813367547382306
אזור תעשיה מפרץ,,toilets,35.0728751,32.8113069,False,False,35.055518134725375,32.813367547382306
אזור תעשיה מפרץ,GOLBARY SACARA,clothes,35.0727949,32.8113904,True,False,35.055518134725375,32.813367547382306
אזור תעשיה מפרץ,פלאפל,fast_food,35.0730668,32.8113968,True,True,35.055518134725375,32.813367547382306
אזור תעשיה מפרץ,iJump,trampoline_park,35.0732208,32.8114972,False,False,35.055518134725375,32.813367547382306
אזור תעשיה מפרץ,הבורקס הבולגרי,fast_food,35.0729644,32.8115607,True,True,35.055518134725375,32.813367547382306
אזור תעשיה מפרץ,Crazy Line,clothes,35.0727079,32.8117902,True,False,35.055518134725375,32.813367547382306
אזור תעשיה מפרץ,RUBEN,restaurant,35.0720973,32.8123654,True,True,35.055518134725375,32.813367547382306
אזור תעשיה מפרץ,ארומה,cafe,35.0716509,32.8119158,True,True,35.055518134725375,32.813367547382306
אזור תעשיה מפרץ,מפעל הפיס,yes,35.0722687,32.8110357,False,False,35.055518134725375,32.813367547382306
אזור תעשיה מפרץ,ג'אפניקה,restaurant,35.0735848,32.8104071,True,True,35.055518134725375,32.813367547382306
אזור תעשיה מפרץ,TO GO,shoes,35.0736715,32.8104922,True,False,35.055518134725375,32.813367547382306
אזור תעשיה מפרץ,BeautyCare,yes,35.0737558,32.8105559,False,False,35.055518134725375,32.813367547382306
אזור תעשיה מפרץ,טרקלין חשמל,electronics,35.0738287,32.8106351,True,False,35.055518134725375,32.813367547382306
אזור תעשיה מפרץ,DUTI MOTY,beauty,35.0739047,32.810704,True,False,35.055518134725375,32.813367547382306
אזור תעשיה מפרץ,א.ל.מ,electronics,35.0739807,32.8107704,True,False,35.055518134725375,32.813367547382306
אזור תעשיה מפרץ,NYOU,shoes,35.0740688,32.8108394,True,False,35.055518134725375,32.813367547382306
אזור תעשיה מפרץ,עידן2000,toys,35.0741417,32.8109007,True,False,35.055518134725375,32.813367547382306
אזור תעשיה מפרץ,Nike Factory Store,clothes,35.0742724,32.8109339,True,False,35.055518134725375,32.813367547382306
אזור תעשיה מפרץ,ניצת הדובדבן,supermarket,35.0740944,32.8111047,True,False,35.055518134725375,32.813367547382306
אזור תעשיה מפרץ,סטימצקי,books,35.0740359,32.8111592,True,False,35.055518134725375,32.813367547382306
אזור תעשיה מפרץ,קרביץ,stationery,35.0739847,32.8112028,True,False,35.055518134725375,32.813367547382306
אזור תעשיה מפרץ,עולם של חיות,pet,35.0739292,32.8112518,False,False,35.055518134725375,32.813367547382306
אזור תעשיה מפרץ,למטייל,travel,35.0738679,32.8113053,True,False,35.055518134725375,32.813367547382306
אזור תעשיה מפרץ,King Kong,yes,35.0737911,32.8113607,False,False,35.055518134725375,32.813367547382306
אזור תעשיה מפרץ,BENEDICT,restaurant,35.0733253,32.8100209,True,True,35.055518134725375,32.813367547382306
אזור תעשיה מפרץ,Eat Vinny,restaurant,35.0732283,32.8101859,True,True,35.055518134725375,32.813367547382306
אזור תעשיה מפרץ,בורגר סאלון,restaurant,35.0731286,32.8101332,True,True,35.055518134725375,32.813367547382306
אזור תעשיה מפרץ,פרש קיטשן,restaurant,35.0730407,32.8100659,True,True,35.055518134725375,32.813367547382306
אזור תעשיה מפרץ,LEGGENDA,fast_food,35.0729643,32.810023,True,True,35.055518134725375,32.813367547382306
אזור תעשיה מפרץ,Decathlon,sports,35.0728123,32.8098984,True,False,35.055518134725375,32.813367547382306
אזור תעשיה מפרץ,ביגה,restaurant,35.0550493,32.807922,True,True,35.055518134725375,32.813367547382306
בתי זיקוק,,,,,,,35.0620639668126,32.79171595271719
מכון טיהור,יס פלנט,cinema,35.0384562,32.7936907,False,False,35.0457487471718,32.790649881348656
מכון טיהור,,parking,35.038283,32.7937653,False,False,35.0457487471718,32.790649881348656
מכון טיהור,,parking,35.0361288,32.793071,False,False,35.0457487471718,32.790649881348656
מכון טיהור,פז,fuel,35.0388927,32.7876142,False,False,35.0457487471718,32.790649881348656
מכון טיהור,פז,fuel,35.0382487,32.7880756,False,False,35.0457487471718,32.790649881348656
מכון טיהור,סוכנות לקסוס,car,35.0384883,32.7908441,False,False,35.0457487471718,32.790649881348656
מכון טיהור,שווארמה חזן,fast_food,35.0379527,32.7924445,True,True,35.0457487471718,32.790649881348656
מכון טיהור,בית חולים אסותא,hospital,35.0378769,32.793711,False,False,35.0457487471718,32.790649881348656
מכון טיהור,מקדונלד'ס,fast_food,35.0361391,32.7933642,True,True,35.0457487471718,32.790649881348656
מכון טיהור,מודיעין אגד,information,35.0351322,32.7920356,False,False,35.0457487471718,32.790649881348656
מכון טיהור,מודיעין אגד,information,35.0348693,32.7924821,False,False,35.0457487471718,32.790649881348656
מכון טיהור,,cafe,35.040755,32.7892023,True,True,35.0457487471718,32.790649881348656
מכון טיהור,,optician,35.0409228,32.7895147,True,False,35.0457487471718,32.790649881348656
"צומת הקריות, חוף שמן",Shlomo Car Rental,car_rental,35.0349487,32.7909341,True,False,35.02264982955195,32.80051531337662
"צומת הקריות, חוף שמן",פז,fuel,35.0157239,32.807388,False,False,35.02264982955195,32.80051531337662
"צומת הקריות, חוף שמן",דור אלון,fuel,35.0167805,32.8065406,False,False,35.02264982955195,32.80051531337662
"צומת הקריות, חוף שמן",,fire_station,35.0213126,32.7990705,False,False,35.02264982955195,32.80051531337662
"צומת הקריות, חוף שמן",Avis,car_rental,35.0344808,32.7914315,True,False,35.02264982955195,32.80051531337662
"צומת הקריות, חוף שמן",,parking,35.0057214,32.8109119,False,False,35.02264982955195,32.80051531337662
"צומת הקריות, חוף שמן",תפוז,fuel,35.0375659,32.7830885,False,False,35.02264982955195,32.80051531337662
"צומת הקריות, חוף שמן",,post_office,35.0306891,32.7881176,False,False,35.02264982955195,32.80051531337662
"צומת הקריות, חוף שמן",צמיגי ארגמן,tyres,35.0352344,32.7874504,False,False,35.02264982955195,32.80051531337662
"צומת הקריות, חוף שמן",מכון בדיקת רכב צ'קפוינט,car_repair,35.0355404,32.7873104,True,False,35.02264982955195,32.80051531337662
"צומת הקריות, חוף שמן",בית קבלה לעם,community_centre,35.0344554,32.7905842,False,False,35.02264982955195,32.80051531337662
"צומת הקריות, חוף שמן",,atm,35.0335567,32.7925339,False,False,35.02264982955195,32.80051531337662
"צומת הקריות, חוף שמן",,vending_machine,35.0335874,32.792509,False,True,35.02264982955195,32.80051531337662
"צומת הקריות, חוף שמן",,lottery,35.0346091,32.7926376,True,False,35.02264982955195,32.80051531337662
"צומת הקריות, חוף שמן",,vending_machine,35.0345501,32.7926433,False,True,35.02264982955195,32.80051531337662
"צומת הקריות, חוף שמן",,vending_machine,35.034581,32.7926475,False,True,35.02264982955195,32.80051531337662
"צומת הקריות, חוף שמן",מרכז שירות סופרבוס,information,35.0339842,32.792694,False,False,35.02264982955195,32.80051531337662
"צומת הקריות, חוף שמן",ثانوية النجاح,school,35.0345448,32.7906974,False,False,35.02264982955195,32.80051531337662
"צומת הקריות, חוף שמן","קח""ן מוטורס",car,35.0338273,32.7903851,False,False,35.02264982955195,32.80051531337662
"צומת הקריות, חוף שמן","יואב גוספריד בע""ם",hardware,35.0336127,32.7903084,True,False,35.02264982955195,32.80051531337662
"צומת הקריות, חוף שמן",Suzuki,car,35.0333539,32.7901675,False,False,35.02264982955195,32.80051531337662
"צומת הקריות, חוף שמן",עמודי שלמה,houseware,35.0329113,32.7899894,True,False,35.02264982955195,32.80051531337662
"צומת הקריות, חוף שמן",Green,furniture,35.03166,32.7895395,True,False,35.02264982955195,32.80051531337662
"צומת הקריות, חוף שמן",מוצצים,baby_goods,35.0313851,32.7894922,True,False,35.02264982955195,32.80051531337662
"צומת הקריות, חוף שמן",קאזה בלה תאורה,lighting,35.031023,32.7893445,False,False,35.02264982955195,32.80051531337662
"צומת הקריות, חוף שמן",מסובין,furniture,35.0303122,32.7893073,True,False,35.02264982955195,32.80051531337662
"צומת הקריות, חוף שמן",שווארמה ופלאפל המרכז,fast_food,35.0297423,32.789128,True,True,35.02264982955195,32.80051531337662
"צומת הקריות, חוף שמן",האוכל של מאמא,fast_food,35.0296725,32.7891089,True,True,35.02264982955195,32.80051531337662
"צומת הקריות, חוף שמן",קופי שופ,cafe,35.0296283,32.789101,True,True,35.02264982955195,32.80051531337662
"צומת הקריות, חוף שמן",שיפודי הצ'קפוסט,fast_food,35.0295009,32.7890773,True,True,35.02264982955195,32.80051531337662
"צומת הקריות, חוף שמן",קפה דנדי,lottery,35.0295626,32.789092,True,False,35.02264982955195,32.80051531337662
"צומת הקריות, חוף שמן",דור אלון,fuel,35.0168154,32.8040697,False,False,35.02264982955195,32.80051531337662
"צומת הקריות, חוף שמן",אלונית,convenience,35.0166906,32.8038769,True,False,35.02264982955195,32.80051531337662
"צומת הקריות, חוף שמן",ATC Trail Camera,camera,35.0326619,32.7909342,True,False,35.02264982955195,32.80051531337662
"צומת הקריות, חוף שמן",תל ראן,college,35.0324637,32.7908804,False,False,35.02264982955195,32.80051531337662
"צומת הקריות, חוף שמן",רמי לוי,supermarket,35.0303674,32.7868402,True,False,35.02264982955195,32.80051531337662
"צומת הקריות, חוף שמן",,car_wash,35.0182575,32.8035573,False,False,35.02264982955195,32.80051531337662
"צומת הקריות, חוף שמן",בבה פארטס- אביזרים לרכב,car_parts,35.0333535,32.7908336,True,False,35.02264982955195,32.80051531337662
"צומת הקריות, חוף שמן",,vending_machine,35.0336192,32.7930487,False,True,35.02264982955195,32.80051531337662
פארק הקישון,Shavit,marina,35.0305869,32.8056256,False,False,35.0356288746698,32.80896126053638
פארק הקישון,צער בעלי חיים,veterinary,35.0379837,32.8075249,True,False,35.0356288746698,32.80896126053638
פארק הקישון,,drinking_water,35.0345995,32.8019882,False,False,35.0356288746698,32.80896126053638
פארק הקישון,,drinking_water,35.0355587,32.801913,False,False,35.0356288746698,32.80896126053638
פארק הקישון,,drinking_water,35.0352776,32.8021212,False,False,35.0356288746698,32.80896126053638
פארק הקישון,,picnic_table,35.0343693,32.8019429,False,False,35.0356288746698,32.80896126053638
פארק הקישון,,picnic_table,35.0344355,32.8019922,False,False,35.0356288746698,32.80896126053638
פארק הקישון,,picnic_table,35.0344181,32.8020166,False,False,35.0356288746698,32.80896126053638
פארק הקישון,,picnic_table,35.0344775,32.802014,False,False,35.0356288746698,32.80896126053638
פארק הקישון,,picnic_table,35.0343518,32.8019639,False,False,35.0356288746698,32.80896126053638
נמל חיפה,,ferry_terminal,35.0094278,32.8228074,False,False,35.00576698389955,32.81882106100776
נמל חיפה,,attraction,35.000122,32.8223606,False,False,35.00576698389955,32.81882106100776
"עיר תחתית מזרח, ואדי סאליב",דלק,fuel,35.0145549,32.8006453,False,False,35.007929861721095,32.806037108321114
"עיר תחתית מזרח, ואדי סאליב",דלק,fuel,35.0148023,32.8009744,False,False,35.007929861721095,32.806037108321114
"עיר תחתית מזרח, ואדי סאליב",,car,35.0146736,32.8006091,False,False,35.007929861721095,32.806037108321114
"עיר תחתית מזרח, ואדי סאליב",,school,35.0062203,32.8055489,False,False,35.007929861721095,32.806037108321114
"עיר תחתית מזרח, ואדי סאליב",Osher Ad,supermarket,35.0115116,32.8033194,True,False,35.007929861721095,32.806037108321114
"עיר תחתית מזרח, ואדי סאליב",קיבוץ גלויות קפה גלריה,cafe,35.0074006,32.8064825,True,True,35.007929861721095,32.806037108321114
"עיר תחתית מזרח, ואדי סאליב",The wild,bar,35.0049542,32.8109857,True,True,35.007929861721095,32.806037108321114
"עיר תחתית מזרח, ואדי סאליב",Wunderbar,bar,35.0056788,32.8100289,True,True,35.007929861721095,32.806037108321114
"עיר תחתית מזרח, ואדי סאליב",,bench,35.0059731,32.8046267,False,False,35.007929861721095,32.806037108321114
"עיר תחתית מזרח, ואדי סאליב",,bench,35.0059603,32.8046026,False,False,35.007929861721095,32.806037108321114
"קריית הממשלה ע""ש רבין",ג'פנאח,place_of_worship,35.0023022,32.8167201,False,False,35.00211849434775,32.815260161762794
"קריית הממשלה ע""ש רבין",דלק,fuel,35.0016858,32.8162048,False,False,35.00211849434775,32.815260161762794
"קריית הממשלה ע""ש רבין",בנק יהב,bank,35.0025756,32.8163632,False,False,35.00211849434775,32.815260161762794
"קריית הממשלה ע""ש רבין",,parking_entrance,35.0003233,32.8162896,False,False,35.00211849434775,32.815260161762794
"קריית הממשלה ע""ש רבין",ביטוח לאומי,government,35.0010967,32.8153811,False,False,35.00211849434775,32.815260161762794
"קריית הממשלה ע""ש רבין",משרד הקליטה,government,35.0027609,32.8161879,False,False,35.00211849434775,32.815260161762794
"קריית הממשלה ע""ש רבין",,post_office,35.0023019,32.8152354,False,False,35.00211849434775,32.815260161762794
"קריית הממשלה ע""ש רבין",בנק הפועלים,bank,34.9999389,32.8168505,False,False,35.00211849434775,32.815260161762794
"קריית הממשלה ע""ש רבין",משרד הפנים,government,35.002658,32.816193,False,False,35.00211849434775,32.815260161762794
"קריית הממשלה ע""ש רבין",,cafe,35.0001249,32.8175777,True,True,35.00211849434775,32.815260161762794
"קריית הממשלה ע""ש רבין",مسجد الإستقلال,place_of_worship,35.0038724,32.8126721,False,False,35.00211849434775,32.815260161762794
"קריית הממשלה ע""ש רבין",Elijah the Prophet Church,place_of_worship,35.0005513,32.8175854,False,False,35.00211849434775,32.815260161762794
"קריית הממשלה ע""ש רבין",,place_of_worship,35.0008576,32.8158835,False,False,35.00211849434775,32.815260161762794
"קריית הממשלה ע""ש רבין",,restaurant,35.0026224,32.8134721,True,True,35.00211849434775,32.815260161762794
"קריית הממשלה ע""ש רבין",,parking_entrance,35.0016921,32.8162583,False,False,35.00211849434775,32.815260161762794
"קריית הממשלה ע""ש רבין",,parking_entrance,35.001723,32.8162364,False,False,35.00211849434775,32.815260161762794
"קריית הממשלה ע""ש רבין",,parking_entrance,35.0013448,32.81604,False,False,35.00211849434775,32.815260161762794
"קריית הממשלה ע""ש רבין",,parking_entrance,35.001468,32.8162221,False,False,35.00211849434775,32.815260161762794
"קריית הממשלה ע""ש רבין",הסירופ חיפה,bar,35.0000812,32.8167554,True,True,35.00211849434775,32.815260161762794
"שער פלמר, תחנת רכבת השמונה",Port Inn Hostel,hostel,34.9977113,32.8194016,True,False,34.99833387000925,32.81954035134921
"שער פלמר, תחנת רכבת השמונה",campus,cafe,35.0014544,32.8179809,True,True,34.99833387000925,32.81954035134921
"שער פלמר, תחנת רכבת השמונה",קפה אוה,cafe,34.9983783,32.8200814,True,True,34.99833387000925,32.81954035134921
"שער פלמר, תחנת רכבת השמונה",אוניברסיטת חיפה קמפוס נמל,school,34.9980035,32.8207287,False,False,34.99833387000925,32.81954035134921
"שער פלמר, תחנת רכבת השמונה",מרכז אקדמי כרמל,school,34.999444,32.8203377,False,False,34.99833387000925,32.81954035134921
"שער פלמר, תחנת רכבת השמונה",מסעדה / קפה שני,restaurant,34.9982764,32.8201445,True,True,34.99833387000925,32.81954035134921
"שער פלמר, תחנת רכבת השמונה",העוגן,bar,34.9997228,32.819447,True,True,34.99833387000925,32.81954035134921
"שער פלמר, תחנת רכבת השמונה",,alcohol,35.0002967,32.8192525,False,False,34.99833387000925,32.81954035134921
"שער פלמר, תחנת רכבת השמונה",,car,34.9980763,32.8211609,False,False,34.99833387000925,32.81954035134921
"שער פלמר, תחנת רכבת השמונה",,restaurant,34.9973517,32.820814,True,True,34.99833387000925,32.81954035134921
"שער פלמר, תחנת רכבת השמונה",,police,34.998107,32.8192496,False,False,34.99833387000925,32.81954035134921
"שער פלמר, תחנת רכבת השמונה",שוקולטה,restaurant,34.9992636,32.8189521,True,True,34.99833387000925,32.81954035134921
"שער פלמר, תחנת רכבת השמונה",תחנת הבנקים,taxi,34.9975792,32.8202053,False,False,34.99833387000925,32.81954035134921
"שער פלמר, תחנת רכבת השמונה",כיאט,supermarket,34.9988774,32.8186275,True,False,34.99833387000925,32.81954035134921
"שער פלמר, תחנת רכבת השמונה",תחנת מידע,information,34.9995117,32.8192738,False,False,34.99833387000925,32.81954035134921
"שער פלמר, תחנת רכבת השמונה",מתנות,gift,34.9974826,32.8195742,True,False,34.99833387000925,32.81954035134921
"שער פלמר, תחנת רכבת השמונה",CHRISTMAS,gift,34.9970749,32.820025,True,False,34.99833387000925,32.81954035134921
"שער פלמר, תחנת רכבת השמונה",כיתן,clothes,34.9970857,32.8196643,True,False,34.99833387000925,32.81954035134921
"שער פלמר, תחנת רכבת השמונה",סינקופה,pub,34.9987579,32.8185454,True,True,34.99833387000925,32.81954035134921
"שער פלמר, תחנת רכבת השמונה",עבד אבו יוסף,restaurant,34.9998148,32.8170897,True,True,34.99833387000925,32.81954035134921
"שער פלמר, תחנת רכבת השמונה",צ'יף סנדביץ',fast_food,34.9997722,32.8171217,True,True,34.99833387000925,32.81954035134921
"שער פלמר, תחנת רכבת השמונה",פלאפל כיכר פריז,fast_food,34.9995762,32.8175972,True,True,34.99833387000925,32.81954035134921
"שער פלמר, תחנת רכבת השמונה",פלאפל ושווארמה אבו האני,fast_food,34.9999715,32.817718,True,True,34.99833387000925,32.81954035134921
"שער פלמר, תחנת רכבת השמונה",בורקס טורקי מאיזמיר,fast_food,34.9993965,32.8183522,True,True,34.99833387000925,32.81954035134921
"שער פלמר, תחנת רכבת השמונה",Alhambra,cafe,34.999154,32.8189184,True,True,34.99833387000925,32.81954035134921
"שער פלמר, תחנת רכבת השמונה",אנגוס,restaurant,34.9984875,32.8179083,True,True,34.99833387000925,32.81954035134921
"שער פלמר, תחנת רכבת השמונה",אחים יוסף,restaurant,34.9988229,32.8177682,True,True,34.99833387000925,32.81954035134921
"שער פלמר, תחנת רכבת השמונה",מוכתאר חיפה,bakery,34.998219,32.8184822,True,True,34.99833387000925,32.81954035134921
"שער פלמר, תחנת רכבת השמונה",Sachuka,fast_food,34.9996296,32.8177761,True,True,34.99833387000925,32.81954035134921
"שער פלמר, תחנת רכבת השמונה",Maris Hotel,hotel,34.9988641,32.8204727,True,False,34.99833387000925,32.81954035134921
"שער פלמר, תחנת רכבת השמונה",הצנרת שירותי גז,hardware,34.9954133,32.8214068,True,False,34.99833387000925,32.81954035134921
"שער פלמר, תחנת רכבת השמונה",ליבירה,restaurant,35.0004989,32.8192937,True,True,34.99833387000925,32.81954035134921
"שער פלמר, תחנת רכבת השמונה",Michelle Falafel,fast_food,34.9967806,32.8198887,True,True,34.99833387000925,32.81954035134921
"שער פלמר, תחנת רכבת השמונה",Boston George,cafe,34.9994229,32.8180949,True,True,34.99833387000925,32.81954035134921
"שער פלמר, תחנת רכבת השמונה",דוברין 7,bar,34.9997981,32.8178986,True,True,34.99833387000925,32.81954035134921
"שער פלמר, תחנת רכבת השמונה",מעיין הבירה,restaurant,34.9986884,32.8183478,True,True,34.99833387000925,32.81954035134921
"שער פלמר, תחנת רכבת השמונה",,cafe,35.0000151,32.8196229,True,True,34.99833387000925,32.81954035134921
"שער פלמר, תחנת רכבת השמונה",,atm,34.998145,32.8181044,False,False,34.99833387000925,32.81954035134921
"שער פלמר, תחנת רכבת השמונה",,atm,34.9980465,32.8188618,False,False,34.99833387000925,32.81954035134921
"שער פלמר, תחנת רכבת השמונה",,guest_house,34.9995867,32.8182701,True,False,34.99833387000925,32.81954035134921
"שער פלמר, תחנת רכבת השמונה",,restaurant,34.9992064,32.8183111,True,True,34.99833387000925,32.81954035134921
"שער פלמר, תחנת רכבת השמונה",,diplomatic,34.9987288,32.8184871,False,False,34.99833387000925,32.81954035134921
"שער פלמר, תחנת רכבת השמונה",,restaurant,34.9995729,32.8185575,True,True,34.99833387000925,32.81954035134921
"שער פלמר, תחנת רכבת השמונה",,atm,34.9973258,32.8200522,False,False,34.99833387000925,32.81954035134921
"שער פלמר, תחנת רכבת השמונה",,fast_food,34.9964896,32.8194533,True,True,34.99833387000925,32.81954035134921
"שער פלמר, תחנת רכבת השמונה",,cafe,34.9996079,32.8177924,True,True,34.99833387000925,32.81954035134921
"שער פלמר, תחנת רכבת השמונה",יעקב קבב,fast_food,34.9993122,32.8182681,True,True,34.99833387000925,32.81954035134921
"שער פלמר, תחנת רכבת השמונה",אולפן עציון חיפה,school,34.9980895,32.820822,False,False,34.99833387000925,32.81954035134921
"שער פלמר, תחנת רכבת השמונה",,bar,34.9969546,32.8191683,True,True,34.99833387000925,32.81954035134921
"שער פלמר, תחנת רכבת השמונה",,restaurant,34.9972454,32.8197429,True,True,34.99833387000925,32.81954035134921
"שער פלמר, תחנת רכבת השמונה",,cafe,34.9971289,32.8198613,True,True,34.99833387000925,32.81954035134921
"שער פלמר, תחנת רכבת השמונה",,convenience,34.9966454,32.8202983,True,False,34.99833387000925,32.81954035134921
"שער פלמר, תחנת רכבת השמונה",סנדביץ' גבי,cafe,34.9994609,32.8187666,True,True,34.99833387000925,32.81954035134921
"שער פלמר, תחנת רכבת השמונה",,bar,34.9996411,32.818618,True,True,34.99833387000925,32.81954035134921
"שער פלמר, תחנת רכבת השמונה",,bar,34.9997642,32.8184929,True,True,34.99833387000925,32.81954035134921
"שער פלמר, תחנת רכבת השמונה",,bar,34.9996061,32.8168151,True,True,34.99833387000925,32.81954035134921
"שער פלמר, תחנת רכבת השמונה",לוקס,restaurant,35.0018235,32.8177504,True,True,34.99833387000925,32.81954035134921
"שער פלמר, תחנת רכבת השמונה",סושי בר,restaurant,35.0020541,32.8177893,True,True,34.99833387000925,32.81954035134921
"שער פלמר, תחנת רכבת השמונה",שולה,restaurant,35.0000081,32.8201571,True,True,34.99833387000925,32.81954035134921
"שער פלמר, תחנת רכבת השמונה",מלביר,bar,34.9992309,32.820258,True,True,34.99833387000925,32.81954035134921
"שער פלמר, תחנת רכבת השמונה",,bar,34.9966049,32.8194937,True,True,34.99833387000925,32.81954035134921
"שער פלמר, תחנת רכבת השמונה",Shawarma,fast_food,34.9993566,32.8178184,True,True,34.99833387000925,32.81954035134921
"שער פלמר, תחנת רכבת השמונה",,restaurant,34.9989054,32.8181464,True,True,34.99833387000925,32.81954035134921
"שער פלמר, תחנת רכבת השמונה",,confectionery,34.998314,32.8186348,True,False,34.99833387000925,32.81954035134921
"שער פלמר, תחנת רכבת השמונה",,restaurant,34.9971873,32.8195708,True,True,34.99833387000925,32.81954035134921
"שער פלמר, תחנת רכבת השמונה",,bar,34.9973583,32.8194138,True,True,34.99833387000925,32.81954035134921
"שער פלמר, תחנת רכבת השמונה",,artwork,34.9989789,32.8195891,False,False,34.99833387000925,32.81954035134921
"שער פלמר, תחנת רכבת השמונה",Macdonald's,fast_food,34.9992391,32.8195022,True,True,34.99833387000925,32.81954035134921
"שער פלמר, תחנת רכבת השמונה",,bar,34.9979728,32.819143,True,True,34.99833387000925,32.81954035134921
"שער פלמר, תחנת רכבת השמונה",,bakery,34.9966789,32.819714,True,True,34.99833387000925,32.81954035134921
"שער פלמר, תחנת רכבת השמונה",,pub,34.9966539,32.8196656,True,True,34.99833387000925,32.81954035134921
"שער פלמר, תחנת רכבת השמונה",,laundry,34.9978426,32.8192571,True,False,34.99833387000925,32.81954035134921
"שער פלמר, תחנת רכבת השמונה",,hairdresser,34.9965112,32.8198007,True,False,34.99833387000925,32.81954035134921
"שער פלמר, תחנת רכבת השמונה",,bureau_de_change,34.9958906,32.8198573,True,False,34.99833387000925,32.81954035134921
"שער פלמר, תחנת רכבת השמונה",Dali Pizza,fast_food,34.9947849,32.8196969,True,True,34.99833387000925,32.81954035134921
"שער פלמר, תחנת רכבת השמונה",,bakery,34.9946845,32.8195366,True,True,34.99833387000925,32.81954035134921
"שער פלמר, תחנת רכבת השמונה",Almakwa,cafe,34.9960885,32.8205226,True,True,34.99833387000925,32.81954035134921
"שער פלמר, תחנת רכבת השמונה",breada,bakery,35.002603,32.8175039,True,True,34.99833387000925,32.81954035134921
"שער פלמר, תחנת רכבת השמונה",סנגריה,restaurant,34.9968923,32.8196479,True,True,34.99833387000925,32.81954035134921
"שער פלמר, תחנת רכבת השמונה",,restaurant,35.0006555,32.8191549,True,True,34.99833387000925,32.81954035134921
"שער פלמר, תחנת רכבת השמונה","טל-מיר אלקטרוניקה בע""מ",radiotechnics,34.9975414,32.8206876,False,False,34.99833387000925,32.81954035134921
"שער פלמר, תחנת רכבת השמונה",Naima,coffee,34.9965103,32.820106,True,True,34.99833387000925,32.81954035134921
"שער פלמר, תחנת רכבת השמונה",,drinking_water,34.9957823,32.8192721,False,False,34.99833387000925,32.81954035134921
"שער פלמר, תחנת רכבת השמונה",Goosto - hookah store,tobacco,34.9973819,32.8193987,False,False,34.99833387000925,32.81954035134921
"שער פלמר, תחנת רכבת השמונה",Satyricon,bar,34.9995094,32.8166815,True,True,34.99833387000925,32.81954035134921
"שער פלמר, תחנת רכבת השמונה",וספר,bar,34.9997521,32.8178709,True,True,34.99833387000925,32.81954035134921
ואדי ניסנאס,חיואר,school,34.9962693,32.8181896,False,False,34.99403328331671,32.817776584151936
ואדי ניסנאס,יוחנן הקדוש,school,34.9947376,32.8179071,False,False,34.99403328331671,32.817776584151936
ואדי ניסנאס,,police,34.9925909,32.8162506,False,False,34.99403328331671,32.817776584151936
ואדי ניסנאס,,library,34.9925439,32.8160259,False,False,34.99403328331671,32.817776584151936
ואדי ניסנאס,כנסיית יוחנן הקדוש,place_of_worship,34.994679,32.8176804,False,False,34.99403328331671,32.817776584151936
ואדי ניסנאס,,hairdresser,34.9932086,32.8183138,True,False,34.99403328331671,32.817776584151936
ואדי ניסנאס,Falafel HaZkenim,fast_food,34.9936873,32.8170661,True,True,34.99403328331671,32.817776584151936
ואדי ניסנאס,,atm,34.9928473,32.8190031,False,False,34.99403328331671,32.817776584151936
ואדי ניסנאס,,convenience,34.9945488,32.8134057,True,False,34.99403328331671,32.817776584151936
ואדי ניסנאס,,atm,34.993865,32.8177733,False,False,34.99403328331671,32.817776584151936
ואדי ניסנאס,,fast_food,34.9939374,32.8137101,True,True,34.99403328331671,32.817776584151936
ואדי ניסנאס,בית אליהו,place_of_worship,34.9903498,32.8172738,False,False,34.99403328331671,32.817776584151936
ואדי ניסנאס,שווארמה אמיל,fast_food,34.9940123,32.8187188,True,True,34.99403328331671,32.817776584151936
ואדי ניסנאס,הרשות לקליטת עלייה בחיפה,government,34.994946,32.8148157,False,False,34.99403328331671,32.817776584151936
ואדי ניסנאס,,fast_food,34.9938306,32.8170078,True,True,34.99403328331671,32.817776584151936
ואדי ניסנאס,,artwork,34.9940929,32.814977,False,False,34.99403328331671,32.817776584151936
ואדי ניסנאס,Backpackers nest hostel,hostel,34.9954667,32.8210946,True,False,34.99403328331671,32.817776584151936
ואדי ניסנאס,,butcher,34.9933316,32.8201851,True,False,34.99403328331671,32.817776584151936
ואדי ניסנאס,,confectionery,34.9936441,32.8184635,True,False,34.99403328331671,32.817776584151936
ואדי ניסנאס,,restaurant,34.9928152,32.8187382,True,True,34.99403328331671,32.817776584151936
ואדי ניסנאס,,bakery,34.9937711,32.8177025,True,True,34.99403328331671,32.817776584151936
ואדי ניסנאס,Baklava,restaurant,34.9937397,32.8183904,True,True,34.99403328331671,32.817776584151936
ואדי ניסנאס,בית הגפן,attraction,34.9925911,32.815941,False,False,34.99403328331671,32.817776584151936
ואדי ניסנאס,מוזיאון חיפה לאמנות,museum,34.9926973,32.8151043,False,False,34.99403328331671,32.817776584151936
ואדי ניסנאס,,school,34.9915009,32.8175786,False,False,34.99403328331671,32.817776584151936
ואדי ניסנאס,,pet,34.992455,32.8164975,False,False,34.99403328331671,32.817776584151936
ואדי ניסנאס,,hardware,34.9965314,32.8185654,True,False,34.99403328331671,32.817776584151936
ואדי ניסנאס,,restaurant,34.9930461,32.8187274,True,True,34.99403328331671,32.817776584151936
ואדי ניסנאס,Wonderland,cafe,34.9940864,32.8187726,True,True,34.99403328331671,32.817776584151936
מושבה גרמנית,Tourist Information Center,information,34.9891174,32.8180965,False,False,34.98962419958132,32.82128735765398
מושבה גרמנית,,parking,34.9887857,32.8187374,False,False,34.98962419958132,32.82128735765398
מושבה גרמנית,פטוש,restaurant,34.9898908,32.8194047,True,True,34.98962419958132,32.82128735765398
מושבה גרמנית,Igloo Yogurt Bar,cafe,34.9902962,32.8191712,True,True,34.98962419958132,32.82128735765398
מושבה גרמנית,cafécafé,cafe,34.9925024,32.8236325,True,True,34.98962419958132,32.82128735765398
מושבה גרמנית,סופר-פארם,pharmacy,34.9917836,32.8232967,True,False,34.98962419958132,32.82128735765398
מושבה גרמנית,Havana Plus,restaurant,34.9915701,32.8220981,True,True,34.98962419958132,32.82128735765398
מושבה גרמנית,,post_office,34.9909563,32.8204126,False,False,34.98962419958132,32.82128735765398
מושבה גרמנית,Faces,restaurant,34.9905794,32.8197466,True,True,34.98962419958132,32.82128735765398
מושבה גרמנית,,restaurant,34.9902977,32.8192801,True,True,34.98962419958132,32.82128735765398
מושבה גרמנית,The Colony Hotel Haifa,hotel,34.990448,32.8202333,True,False,34.98962419958132,32.82128735765398
מושבה גרמנית,,restaurant,34.9904933,32.819625,True,True,34.98962419958132,32.82128735765398
מושבה גרמנית,,kiosk,34.990024,32.8194738,True,False,34.98962419958132,32.82128735765398
מושבה גרמנית,Taipei,restaurant,34.9892531,32.8175508,True,True,34.98962419958132,32.82128735765398
מושבה גרמנית,Balcon Bistro,restaurant,34.9898279,32.8191197,True,True,34.98962419958132,32.82128735765398
מושבה גרמנית,,parking,34.9886875,32.8180681,False,False,34.98962419958132,32.82128735765398
מושבה גרמנית,,pharmacy,34.990196,32.8216402,True,False,34.98962419958132,32.82128735765398
מושבה גרמנית,מקדונלד'ס,fast_food,34.9917595,32.8229816,True,True,34.98962419958132,32.82128735765398
מושבה גרמנית,,atm,34.9920418,32.8229297,False,False,34.98962419958132,32.82128735765398
מושבה גרמנית,Al-Rayan,restaurant,34.9893783,32.8185783,True,True,34.98962419958132,32.82128735765398
מושבה גרמנית,,convenience,34.9906748,32.8186967,True,False,34.98962419958132,32.82128735765398
מושבה גרמנית,PizzaHut,restaurant,34.9897062,32.8181899,True,True,34.98962419958132,32.82128735765398
מושבה גרמנית,סיפור המושבה הגרמנית (1),information,34.9891713,32.8181878,False,False,34.98962419958132,32.82128735765398
מושבה גרמנית,,post_box,34.9909607,32.820449,False,False,34.98962419958132,32.82128735765398
מושבה גרמנית,סיפור המושבה הגרמנית (2),information,34.9894241,32.8179167,False,False,34.98962419958132,32.82128735765398
מושבה גרמנית,סיפור המושבה הגרמנית (3),information,34.9899062,32.8185257,False,False,34.98962419958132,32.82128735765398
מושבה גרמנית,סיפור המושבה הגרמנית (4),information,34.9899523,32.8193775,False,False,34.98962419958132,32.82128735765398
מושבה גרמנית,סיפור המושבה הגרמנית (7),information,34.9918064,32.8218097,False,False,34.98962419958132,32.82128735765398
מושבה גרמנית,סיפור המושבה הגרמנית (5),information,34.9905742,32.820532,False,False,34.98962419958132,32.82128735765398
מושבה גרמנית,סיפור המושבה הגרמנית (6),information,34.99141,32.8218156,False,False,34.98962419958132,32.82128735765398
מושבה גרמנית,Al Yakhour Hostel,hostel,34.990746,32.8209653,True,False,34.98962419958132,32.82128735765398
מושבה גרמנית,בית החייל,hostel,34.9921559,32.8216188,True,False,34.98962419958132,32.82128735765398
מושבה גרמנית,,motorcycle_parking,34.9915073,32.8200461,False,False,34.98962419958132,32.82128735765398
מושבה גרמנית,Ein El Wadi,restaurant,34.9935218,32.8230573,True,True,34.98962419958132,32.82128735765398
מושבה גרמנית,,restaurant,34.9894559,32.8180499,True,True,34.98962419958132,32.82128735765398
מושבה גרמנית,,restaurant,34.9900695,32.8189898,True,True,34.98962419958132,32.82128735765398
מושבה גרמנית,,restaurant,34.9904274,32.819534,True,True,34.98962419958132,32.82128735765398
מושבה גרמנית,,restaurant,34.9905034,32.8196734,True,True,34.98962419958132,32.82128735765398
מושבה גרמנית,,cafe,34.9907364,32.8200873,True,True,34.98962419958132,32.82128735765398
מושבה גרמנית,,restaurant,34.9908447,32.8202764,True,True,34.98962419958132,32.82128735765398
מושבה גרמנית,,fast_food,34.9912753,32.82088,True,True,34.98962419958132,32.82128735765398
מושבה גרמנית,דוזאן,restaurant,34.9905587,32.8197726,True,True,34.98962419958132,32.82128735765398
מושבה גרמנית,,bureau_de_change,34.990792,32.8201842,True,False,34.98962419958132,32.82128735765398
מושבה גרמנית,,cafe,34.9920445,32.8230746,True,True,34.98962419958132,32.82128735765398
מושבה גרמנית,,cafe,34.9910519,32.8205333,True,True,34.98962419958132,32.82128735765398
מושבה גרמנית,,cafe,34.991692,32.8223635,True,True,34.98962419958132,32.82128735765398
מושבה גרמנית,,cafe,34.9919313,32.8228523,True,True,34.98962419958132,32.82128735765398
מושבה גרמנית,,hairdresser,34.9894975,32.8179007,True,False,34.98962419958132,32.82128735765398
מושבה גרמנית,,cosmetics,34.9896034,32.8181346,True,False,34.98962419958132,32.82128735765398
מושבה גרמנית,,confectionery,34.9894143,32.8179863,True,False,34.98962419958132,32.82128735765398
מושבה גרמנית,,restaurant,34.9901838,32.8191347,True,True,34.98962419958132,32.82128735765398
מושבה גרמנית,,restaurant,34.9910133,32.8211133,True,True,34.98962419958132,32.82128735765398
מושבה גרמנית,,convenience,34.9920966,32.8208451,True,False,34.98962419958132,32.82128735765398
מושבה גרמנית,,confectionery,34.98999,32.819458,True,False,34.98962419958132,32.82128735765398
מושבה גרמנית,,restaurant,34.9903729,32.8194483,True,True,34.98962419958132,32.82128735765398
מושבה גרמנית,,alcohol,34.9908241,32.8202346,False,False,34.98962419958132,32.82128735765398
מושבה גרמנית,,travel_agency,34.9910647,32.8212015,True,False,34.98962419958132,32.82128735765398
מושבה גרמנית,,travel_agency,34.9911965,32.8208168,True,False,34.98962419958132,32.82128735765398
מושבה גרמנית,German Colony Hostel,hostel,34.991858,32.823632,True,False,34.98962419958132,32.82128735765398
מושבה גרמנית,,travel_agency,34.9912741,32.8215592,True,False,34.98962419958132,32.82128735765398
קריית אליהו,קשת טעמים,supermarket,34.9876048,32.825086,True,False,34.98587179241285,32.824070588708736
קריית אליהו,קיה מוטורס,car,34.9876745,32.8263524,False,False,34.98587179241285,32.824070588708736
קריית אליהו,,parking_entrance,34.9859699,32.8267928,False,False,34.98587179241285,32.824070588708736
קריית אליהו,,parking_entrance,34.9859742,32.8267452,False,False,34.98587179241285,32.824070588708736
קריית אליהו,,parking_entrance,34.9873043,32.8249415,False,False,34.98587179241285,32.824070588708736
קריית אליהו,,parking_entrance,34.988031,32.8257418,False,False,34.98587179241285,32.824070588708736
קריית אליהו,,parking_entrance,34.9880241,32.8244521,False,False,34.98587179241285,32.824070588708736
קריית אליהו,,parking_entrance,34.9881184,32.8249633,False,False,34.98587179241285,32.824070588708736
קריית אליהו,,parking_entrance,34.9867843,32.8246562,False,False,34.98587179241285,32.824070588708736
קריית אליהו,,park,34.9840502,32.8253874,False,False,34.98587179241285,32.824070588708736
קריית אליהו,,park,34.9837848,32.826152,False,False,34.98587179241285,32.824070588708736
קריית אליהו,,park,34.9838007,32.8260766,False,False,34.98587179241285,32.824070588708736
קריית אליהו,,bench,34.9837991,32.8266505,False,False,34.98587179241285,32.824070588708736
קריית אליהו,,parking,34.9839732,32.8264358,False,False,34.98587179241285,32.824070588708736
קריית אליעזר,מערת אליהו,attraction,34.9693011,32.829951,False,False,34.978297982775544,32.825835897603135
קריית אליעזר,,taxi,34.9838986,32.824994,False,False,34.978297982775544,32.825835897603135
קריית אליעזר,,toilets,34.9694901,32.829923,False,False,34.978297982775544,32.825835897603135
קריית אליעזר,,playground,34.982208,32.8223648,False,False,34.978297982775544,32.825835897603135
קריית אליעזר,,playground,34.9841821,32.819421,False,False,34.978297982775544,32.825835897603135
קריית אליעזר,,recycling,34.9795941,32.8266175,False,False,34.978297982775544,32.825835897603135
קריית אליעזר,,waste_disposal,34.9796078,32.8266374,False,False,34.978297982775544,32.825835897603135
קריית אליעזר,,waste_disposal,34.9802925,32.8278362,False,False,34.978297982775544,32.825835897603135
קריית אליעזר,,hotel,34.9748413,32.8290249,True,False,34.978297982775544,32.825835897603135
קריית אליעזר,,playground,34.9814458,32.8256605,False,False,34.978297982775544,32.825835897603135
קריית אליעזר,,playground,34.9737613,32.8298003,False,False,34.978297982775544,32.825835897603135
קריית אליעזר,,recycling,34.9823864,32.8276552,False,False,34.978297982775544,32.825835897603135
קריית אליעזר,,waste_disposal,34.9824441,32.827626,False,False,34.978297982775544,32.825835897603135
קריית אליעזר,,recycling,34.9826382,32.8274086,False,False,34.978297982775544,32.825835897603135
קריית אליעזר,,recycling,34.9835071,32.8260985,False,False,34.978297982775544,32.825835897603135
קריית אליעזר,,dog_park,34.9746757,32.8288398,False,False,34.978297982775544,32.825835897603135
קריית אליעזר,,fitness_station,34.9811289,32.8258704,False,False,34.978297982775544,32.825835897603135
קריית אליעזר,,bakery,34.9809321,32.8220232,True,True,34.978297982775544,32.825835897603135
קריית אליעזר,,hairdresser,34.9809607,32.8219841,True,False,34.978297982775544,32.825835897603135
קריית אליעזר,,yes,34.9812589,32.8217774,False,False,34.978297982775544,32.825835897603135
קריית אליעזר,,viewpoint,34.9770194,32.8240443,False,False,34.978297982775544,32.825835897603135
קריית אליעזר,מוזיאון ההעפלה וחיל הים,museum,34.9714206,32.8300751,False,False,34.978297982775544,32.825835897603135
קריית אליעזר,,artwork,34.9834237,32.8250992,False,False,34.978297982775544,32.825835897603135
קריית אליעזר,,post_box,34.9813625,32.8235294,False,False,34.978297982775544,32.825835897603135
קריית אליעזר,,bench,34.9769964,32.8240037,False,False,34.978297982775544,32.825835897603135
קריית אליעזר,,bench,34.9770007,32.8239782,False,False,34.978297982775544,32.825835897603135
קריית אליעזר,,bench,34.976926,32.8240401,False,False,34.978297982775544,32.825835897603135
קריית אליעזר,,bench,34.9769581,32.8240344,False,False,34.978297982775544,32.825835897603135
קריית אליעזר,מעדני מניה,convenience,34.9776902,32.8283578,True,False,34.978297982775544,32.825835897603135
קריית אליעזר,עירונית קריית אליעזר,townhall,34.9815123,32.8247377,False,False,34.978297982775544,32.825835897603135
קריית אליעזר,,recycling,34.979268,32.8255636,False,False,34.978297982775544,32.825835897603135
קריית אליעזר,,waste_disposal,34.9792808,32.825592,False,False,34.978297982775544,32.825835897603135
קריית אליעזר,,recycling,34.9789457,32.8257431,False,False,34.978297982775544,32.825835897603135
קריית אליעזר,,waste_disposal,34.9789749,32.8257608,False,False,34.978297982775544,32.825835897603135
קריית אליעזר,,florist,34.9825568,32.8241179,True,False,34.978297982775544,32.825835897603135
קריית אליעזר,,atm,34.982391,32.8247664,False,False,34.978297982775544,32.825835897603135
קריית אליעזר,,supermarket,34.9829855,32.8256503,True,False,34.978297982775544,32.825835897603135
קריית אליעזר,,greengrocer,34.9826273,32.8256948,True,False,34.978297982775544,32.825835897603135
בת גלים,יטבתה בעיר,restaurant,34.9704543,32.8314091,True,True,34.981604600784806,32.831725513370124
בת גלים,פז,fuel,34.9783342,32.8300974,False,False,34.981604600784806,32.831725513370124
בת גלים,,parking,34.9712325,32.831118,False,False,34.981604600784806,32.831725513370124
בת גלים,מיון ילדים,hospital,34.984809,32.8337666,False,False,34.981604600784806,32.831725513370124
בת גלים,דלק,fuel,34.9775128,32.8302406,False,False,34.981604600784806,32.831725513370124
בת גלים,פז,fuel,34.9766599,32.8303353,False,False,34.981604600784806,32.831725513370124
בת גלים,ויקטור,deli,34.9802288,32.8343869,True,True,34.981604600784806,32.831725513370124
בת גלים,מזנון החוף השקט,fast_food,34.9876926,32.8322981,True,True,34.981604600784806,32.831725513370124
בת גלים,,atm,34.9874489,32.8322872,False,False,34.981604600784806,32.831725513370124
בת גלים,,convenience,34.9807722,32.8318853,True,False,34.981604600784806,32.831725513370124
בת גלים,,convenience,34.9754708,32.8318856,True,False,34.981604600784806,32.831725513370124
בת גלים,בית מרקחת ״עליה״,pharmacy,34.9795826,32.8322732,True,False,34.981604600784806,32.831725513370124
בת גלים,,fast_food,34.9827945,32.8323538,True,True,34.981604600784806,32.831725513370124
בת גלים,,greengrocer,34.982659,32.8323651,True,False,34.981604600784806,32.831725513370124
בת גלים,Abu Zeid,restaurant,34.9783679,32.8322692,True,True,34.981604600784806,32.831725513370124
בת גלים,,convenience,34.9784722,32.8322774,True,False,34.981604600784806,32.831725513370124
בת גלים,Beit Skandinavia,guest_house,34.975743,32.8323191,True,False,34.981604600784806,32.831725513370124
בת גלים,מנעולן בחיפה,car_repair,34.9779063,32.8334654,True,False,34.981604600784806,32.831725513370124
בת גלים,חדר מיון,hospital,34.9855056,32.83272,False,False,34.981604600784806,32.831725513370124
בת גלים,חופית,ice_cream,34.9768132,32.8337297,True,True,34.981604600784806,32.831725513370124
בת גלים,,toilets,34.9787794,32.8352282,False,False,34.981604600784806,32.831725513370124
בת גלים,,cafe,34.9789384,32.8350273,True,True,34.981604600784806,32.831725513370124
בת גלים,,shower,34.9788489,32.8350739,False,False,34.981604600784806,32.831725513370124
בת גלים,,shower,34.9786431,32.8351176,False,False,34.981604600784806,32.831725513370124
בת גלים,,waste_disposal,34.9819871,32.8309317,False,False,34.981604600784806,32.831725513370124
בת גלים,,recycling,34.9819721,32.83098,False,False,34.981604600784806,32.831725513370124
בת גלים,Bat Galim Boutique Hotel,hotel,34.9781296,32.8323575,True,False,34.981604600784806,32.831725513370124
בת גלים,,cafe,34.9804757,32.831844,True,True,34.981604600784806,32.831725513370124
בת גלים,בר גלים,bar,34.9785633,32.8333609,True,True,34.981604600784806,32.831725513370124
בת גלים,,bicycle_parking,34.9779427,32.8322165,False,False,34.981604600784806,32.831725513370124
בת גלים,מסעדג,restaurant,34.9766944,32.8337479,True,True,34.981604600784806,32.831725513370124
בת גלים,villacoola,bar,34.9738887,32.8324019,True,True,34.981604600784806,32.831725513370124
בת גלים,,recycling,34.9801056,32.8324571,False,False,34.981604600784806,32.831725513370124
בת גלים,,toilets,34.9703092,32.8312105,False,False,34.981604600784806,32.831725513370124
בת גלים,Yellow,convenience,34.9783739,32.8302549,True,False,34.981604600784806,32.831725513370124
בת גלים,מנטה,convenience,34.9774741,32.8302436,True,False,34.981604600784806,32.831725513370124
בת גלים,Yellow,convenience,34.9765259,32.830407,True,False,34.981604600784806,32.831725513370124
בת גלים,,shower,34.97776,32.8349778,False,False,34.981604600784806,32.831725513370124
בת גלים,,drinking_water,34.9786899,32.835048,False,False,34.981604600784806,32.831725513370124
בת גלים,,drinking_water,34.9787339,32.8351315,False,False,34.981604600784806,32.831725513370124
בת גלים,,toilets,34.9788169,32.8351059,False,False,34.981604600784806,32.831725513370124
בת גלים,,convenience,34.9827887,32.8319448,True,False,34.981604600784806,32.831725513370124
בת גלים,,bench,34.9707383,32.8316438,False,False,34.981604600784806,32.831725513370124
בת גלים,,bench,34.9709419,32.8316917,False,False,34.981604600784806,32.831725513370124
בת גלים,,bench,34.9711612,32.8317381,False,False,34.981604600784806,32.831725513370124
בת גלים,,bench,34.9712251,32.8317468,False,False,34.981604600784806,32.831725513370124
בת גלים,,waste_basket,34.9707614,32.8316462,False,False,34.981604600784806,32.831725513370124
בת גלים,,waste_basket,34.9709214,32.8316847,False,False,34.981604600784806,32.831725513370124
בת גלים,,waste_basket,34.970989,32.8317165,False,False,34.981604600784806,32.831725513370124
בת גלים,,drinking_water,34.9709668,32.8315153,False,False,34.981604600784806,32.831725513370124
בת גלים,,fitness_station,34.9718649,32.8319315,False,False,34.981604600784806,32.831725513370124
בת גלים,,drinking_water,34.9784572,32.834986,False,False,34.981604600784806,32.831725513370124
עין הים,,viewpoint,34.966334,32.828755,False,False,34.963535459974835,32.82761069978858
עין הים,,slipway,34.9682966,32.8315451,False,False,34.963535459974835,32.82761069978858
עין הים,,restaurant,34.9640416,32.8293749,True,True,34.963535459974835,32.82761069978858
עין הים,Tamer Guest House,guest_house,34.9680573,32.830231,True,False,34.963535459974835,32.82761069978858
עין הים,,viewpoint,34.9659702,32.8287187,False,False,34.963535459974835,32.82761069978858
עין הים,,drinking_water,34.9653507,32.824737,False,False,34.963535459974835,32.82761069978858
קריית שפרינצק,,viewpoint,34.9583327,32.8228867,False,False,34.96242689362238,32.820107997032046
קריית שפרינצק,Mini Market,convenience,34.964887,32.8181002,True,False,34.96242689362238,32.820107997032046
קריית שפרינצק,Pizza,fast_food,34.9638026,32.821428,True,True,34.96242689362238,32.820107997032046
קריית שפרינצק,,post_box,34.9634566,32.8180275,False,False,34.96242689362238,32.820107997032046
קריית שפרינצק,,bar,34.9635813,32.818218,True,True,34.96242689362238,32.820107997032046
קריית שפרינצק,,clinic,34.9598732,32.8179644,True,False,34.96242689362238,32.820107997032046
קריית שפרינצק,,post_office,34.9602507,32.8198821,False,False,34.96242689362238,32.820107997032046
קריית שפרינצק,Mini Market,convenience,34.9638787,32.8214435,True,False,34.96242689362238,32.820107997032046
קריית שפרינצק,,pharmacy,34.9636611,32.8211753,True,False,34.96242689362238,32.820107997032046
קריית שפרינצק,Mini Market,convenience,34.9639356,32.8215022,True,False,34.96242689362238,32.820107997032046
קריית שפרינצק,,bakery,34.9639918,32.8215537,True,True,34.96242689362238,32.820107997032046
קריית שפרינצק,Mini-Maxi,convenience,34.959617,32.822682,True,False,34.96242689362238,32.820107997032046
קריית שפרינצק,,supermarket,34.9590584,32.8203877,True,False,34.96242689362238,32.820107997032046
קריית שפרינצק,,drinking_water,34.9596997,32.8221659,False,False,34.96242689362238,32.820107997032046
קריית שפרינצק,,parking,34.9597498,32.8171508,False,False,34.96242689362238,32.820107997032046
קריית שפרינצק,,viewpoint,34.9590741,32.8237851,False,False,34.96242689362238,32.820107997032046
קריית שפרינצק,,dog_park,34.9569113,32.8211657,False,False,34.96242689362238,32.820107997032046
שער העלייה,דלק,fuel,34.9556891,32.8127304,False,False,34.95635622671943,32.818290374696474
שער העלייה,Maxim,restaurant,34.9556992,32.8125194,True,True,34.95635622671943,32.818290374696474
שער העלייה,סונול,fuel,34.9558006,32.819366,False,False,34.95635622671943,32.818290374696474
שער העלייה,,parking,34.9573474,32.8248819,False,False,34.95635622671943,32.818290374696474
שער העלייה,,drinking_water,34.9553034,32.8160019,False,False,34.95635622671943,32.818290374696474
שער העלייה,IOLR slipway,slipway,34.9558008,32.8258972,False,False,34.95635622671943,32.818290374696474
שער העלייה,,playground,34.957146,32.8147538,False,False,34.95635622671943,32.818290374696474
שער העלייה,,drinking_water,34.957051,32.8146185,False,False,34.95635622671943,32.818290374696474
שער העלייה,Sogood,convenience,34.9557119,32.8193714,True,False,34.95635622671943,32.818290374696474
"רמת חביב (ר. הנשיא), רח' שונית",,park,34.9624134,32.8125756,False,False,34.9627481234392,32.812753398312715
"רמת חביב (ר. הנשיא), רח' שונית",Shufersal,supermarket,34.9607981,32.8122787,True,False,34.9627481234392,32.812753398312715
"רמת חביב (ר. הנשיא), רח' שונית",,fitness_station,34.9629151,32.8132207,False,False,34.9627481234392,32.812753398312715
נוה דוד,,parking,34.9555544,32.8107157,False,False,34.96028408757153,32.80911687219088
נוה דוד,"בי""ס עיוני מקצועי ע""ש יאנוש קורצ'ק",school,34.9581394,32.8104332,False,False,34.96028408757153,32.80911687219088
נוה דוד,,pitch,34.9593911,32.8112421,False,False,34.96028408757153,32.80911687219088
נוה דוד,,playground,34.959013,32.8088944,False,False,34.96028408757153,32.80911687219088
נוה דוד,,pitch,34.9583327,32.8104633,False,False,34.96028408757153,32.80911687219088
נוה דוד,מרכז שפיצר לשיקום,clinic,34.9594044,32.8128664,True,False,34.96028408757153,32.80911687219088
נוה דוד,מרכז קהילתי נוה דוד,community_centre,34.9595031,32.8114522,False,False,34.96028408757153,32.80911687219088
נוה דוד,,pitch,34.9592452,32.8111455,False,False,34.96028408757153,32.80911687219088
נוה דוד,,playground,34.9595061,32.8125318,False,False,34.96028408757153,32.80911687219088
נוה דוד,,place_of_worship,34.9598434,32.8094004,False,False,34.96028408757153,32.80911687219088
נוה דוד,,place_of_worship,34.9595761,32.8103309,False,False,34.96028408757153,32.80911687219088
חוף הכרמל,,drinking_water,34.9562512,32.7974155,False,False,34.95743362621294,32.79755392144343
חוף הכרמל,,toilets,34.9564107,32.7989739,False,False,34.95743362621294,32.79755392144343
חוף הכרמל,,drinking_water,34.9556607,32.7903651,False,False,34.95743362621294,32.79755392144343
חוף הכרמל,Nirvana Club and Bar,nightclub,34.9563972,32.8006349,True,False,34.95743362621294,32.79755392144343
חוף הכרמל,סמירמיס,restaurant,34.958185,32.8033821,True,True,34.95743362621294,32.79755392144343
חוף הכרמל,,restaurant,34.9567309,32.8008007,True,True,34.95743362621294,32.79755392144343
חוף הכרמל,ארומה,cafe,34.9584143,32.8031915,True,True,34.95743362621294,32.79755392144343
חוף הכרמל,,bench,34.9560274,32.7965477,False,False,34.95743362621294,32.79755392144343
חוף הכרמל,,bench,34.9560336,32.7967755,False,False,34.95743362621294,32.79755392144343
חוף הכרמל,עונות,restaurant,34.9560366,32.7932246,True,True,34.95743362621294,32.79755392144343
חוף הכרמל,,drinking_water,34.95607,32.7964204,False,False,34.95743362621294,32.79755392144343
חוף הכרמל,,fountain,34.9562661,32.7978407,False,False,34.95743362621294,32.79755392144343
חוף הכרמל,café café,cafe,34.9563607,32.797091,True,True,34.95743362621294,32.79755392144343
חוף הכרמל,Paradiso,restaurant,34.9563678,32.7971652,True,True,34.95743362621294,32.79755392144343
חוף הכרמל,,toilets,34.9562885,32.7968915,False,False,34.95743362621294,32.79755392144343
חוף הכרמל,,shower,34.955954,32.7919304,False,False,34.95743362621294,32.79755392144343
חוף הכרמל,,toilets,34.9559037,32.7919074,False,False,34.95743362621294,32.79755392144343
חוף הכרמל,,shower,34.9559999,32.7922411,False,False,34.95743362621294,32.79755392144343
חוף הכרמל,,toilets,34.9560889,32.7922378,False,False,34.95743362621294,32.79755392144343
חוף הכרמל,,shower,34.9558243,32.7931034,False,False,34.95743362621294,32.79755392144343
חוף הכרמל,,shower,34.9554902,32.7913278,False,False,34.95743362621294,32.79755392144343
חוף הכרמל,,shower,34.9556461,32.7903428,False,False,34.95743362621294,32.79755392144343
חוף הכרמל,,shower,34.9559486,32.7941923,False,False,34.95743362621294,32.79755392144343
חוף הכרמל,,shower,34.9559157,32.7948487,False,False,34.95743362621294,32.79755392144343
חוף הכרמל,,shower,34.9562325,32.7974431,False,False,34.95743362621294,32.79755392144343
חוף הכרמל,,shower,34.9563201,32.7989114,False,False,34.95743362621294,32.79755392144343
חוף הכרמל,Yellow,convenience,34.9582269,32.8033378,True,False,34.95743362621294,32.79755392144343
חוף הכרמל,,bench,34.9565412,32.8016482,False,False,34.95743362621294,32.79755392144343
חוף הכרמל,,bench,34.9566333,32.8026713,False,False,34.95743362621294,32.79755392144343
חוף הכרמל,,bench,34.9566008,32.802347,False,False,34.95743362621294,32.79755392144343
חוף הכרמל,,toilets,34.9561607,32.7959699,False,False,34.95743362621294,32.79755392144343
חוף הכרמל,,toilets,34.95635,32.7930501,False,False,34.95743362621294,32.79755392144343
חוף הכרמל,החבית,restaurant,34.9561798,32.7941017,True,True,34.95743362621294,32.79755392144343
חוף הכרמל,,drinking_water,34.9559564,32.7935672,False,False,34.95743362621294,32.79755392144343
חוף הכרמל,,fitness_station,34.9559977,32.7944879,False,False,34.95743362621294,32.79755392144343
חוף הכרמל,,drinking_water,34.9564215,32.801253,False,False,34.95743362621294,32.79755392144343
"מת""ם",דלק,fuel,34.9587083,32.7873437,False,False,34.95946673109204,32.78990793567573
"מת""ם",,parking,34.9580894,32.7863959,False,False,34.95946673109204,32.78990793567573
"מת""ם",C3,parking_entrance,34.9592254,32.7879263,False,False,34.95946673109204,32.78990793567573
"מת""ם",,bank,34.9588304,32.7892432,False,False,34.95946673109204,32.78990793567573
"מת""ם",,post_office,34.9591218,32.7888627,False,False,34.95946673109204,32.78990793567573
"מת""ם",,car_wash,34.9585699,32.7873941,False,False,34.95946673109204,32.78990793567573
"מת""ם",Maspera,hairdresser,34.9592243,32.7899826,True,False,34.95946673109204,32.78990793567573
"מת""ם",בנק מזרחי טפחות,bank,34.9593262,32.7899871,False,False,34.95946673109204,32.78990793567573
"מת""ם",Everysight,company,34.9593655,32.7897925,True,False,34.95946673109204,32.78990793567573
"מת""ם",C4,parking_entrance,34.9585677,32.7883534,False,False,34.95946673109204,32.78990793567573
"מת""ם",קפה עלית אספרסו בר,cafe,34.9569881,32.7936346,True,True,34.95946673109204,32.78990793567573
"מרכז הקונגרסים, נאות פרס, יצחק נבון",Haifa Mall,parking,34.9639719,32.7891465,False,False,34.96797332914661,32.782879114115275
"מרכז הקונגרסים, נאות פרס, יצחק נבון",סטקיית הבוקרים,restaurant,34.964017,32.7906653,True,True,34.96797332914661,32.782879114115275
"מרכז הקונגרסים, נאות פרס, יצחק נבון",פז,fuel,34.9640835,32.7909145,False,False,34.96797332914661,32.782879114115275
"מרכז הקונגרסים, נאות פרס, יצחק נבון",פסטה פקטורי,restaurant,34.9640589,32.7910694,True,True,34.96797332914661,32.782879114115275
"מרכז הקונגרסים, נאות פרס, יצחק נבון",Abu Maaroon,restaurant,34.9649106,32.7919489,True,True,34.96797332914661,32.782879114115275
"מרכז הקונגרסים, נאות פרס, יצחק נבון",,car_wash,34.9639021,32.7909297,False,False,34.96797332914661,32.782879114115275
"מרכז הקונגרסים, נאות פרס, יצחק נבון",,car_wash,34.965844,32.7899827,False,False,34.96797332914661,32.782879114115275
"מרכז הקונגרסים, נאות פרס, יצחק נבון",סטופמרקט,supermarket,34.9681309,32.7884423,True,False,34.96797332914661,32.782879114115275
"מרכז הקונגרסים, נאות פרס, יצחק נבון",שקם אלקטריק,electronics,34.9638943,32.7893606,True,False,34.96797332914661,32.782879114115275
"מרכז הקונגרסים, נאות פרס, יצחק נבון",פלאפון,mobile_phone,34.9637602,32.7893178,True,False,34.96797332914661,32.782879114115275
"מרכז הקונגרסים, נאות פרס, יצחק נבון",H&O,clothes,34.9636368,32.7895883,True,False,34.96797332914661,32.782879114115275
"מרכז הקונגרסים, נאות פרס, יצחק נבון",גרג קפה,cafe,34.9638889,32.7897417,True,True,34.96797332914661,32.782879114115275
"מרכז הקונגרסים, נאות פרס, יצחק נבון",פרטנר,mobile_phone,34.9641518,32.7894981,True,False,34.96797332914661,32.782879114115275
"מרכז הקונגרסים, נאות פרס, יצחק נבון",פוקס,clothes,34.9643851,32.78978,True,False,34.96797332914661,32.782879114115275
"מרכז הקונגרסים, נאות פרס, יצחק נבון",רנואר,clothes,34.9649538,32.7895094,True,False,34.96797332914661,32.782879114115275
"מרכז הקונגרסים, נאות פרס, יצחק נבון",TNT,clothes,34.9650852,32.7897958,True,False,34.96797332914661,32.782879114115275
"מרכז הקונגרסים, נאות פרס, יצחק נבון",קרייזי ליין,clothes,34.9649028,32.7898025,True,False,34.96797332914661,32.782879114115275
"מרכז הקונגרסים, נאות פרס, יצחק נבון",מנגו,clothes,34.9654392,32.7898161,True,False,34.96797332914661,32.782879114115275
"מרכז הקונגרסים, נאות פרס, יצחק נבון",הוניגמן,clothes,34.9657182,32.7898273,True,False,34.96797332914661,32.782879114115275
"מרכז הקונגרסים, נאות פרס, יצחק נבון",ניו-פארם,pharmacy,34.9658523,32.7898161,True,False,34.96797332914661,32.782879114115275
"מרכז הקונגרסים, נאות פרס, יצחק נבון",גולף,clothes,34.9656887,32.7895229,True,False,34.96797332914661,32.782879114115275
"מרכז הקונגרסים, נאות פרס, יצחק נבון",בנק לאומי,bank,34.966083,32.7895477,False,False,34.96797332914661,32.782879114115275
"מרכז הקונגרסים, נאות פרס, יצחק נבון",אמריקן איגל,clothes,34.966268,32.7899987,True,False,34.96797332914661,32.782879114115275
"מרכז הקונגרסים, נאות פרס, יצחק נבון",טבע נאות,shoes,34.9640633,32.7897822,True,False,34.96797332914661,32.782879114115275
"מרכז הקונגרסים, נאות פרס, יצחק נבון",תמנון,clothes,34.9647445,32.7897958,True,False,34.96797332914661,32.782879114115275
"מרכז הקונגרסים, נאות פרס, יצחק נבון",קנדילנד,confectionery,34.9642966,32.7894981,True,False,34.96797332914661,32.782879114115275
"מרכז הקונגרסים, נאות פרס, יצחק נבון",מנדרין,cafe,34.9653507,32.7895252,True,True,34.96797332914661,32.782879114115275
"מרכז הקונגרסים, נאות פרס, יצחק נבון",ללין,cosmetics,34.9646126,32.7897989,True,False,34.96797332914661,32.782879114115275
"מרכז הקונגרסים, נאות פרס, יצחק נבון",אפריל,cosmetics,34.9660266,32.7899752,True,False,34.96797332914661,32.782879114115275
"מרכז הקונגרסים, נאות פרס, יצחק נבון",למטייל עודפים,yes,34.9656474,32.7908338,False,False,34.96797332914661,32.782879114115275
"מרכז הקונגרסים, נאות פרס, יצחק נבון",,playground,34.9649408,32.7800168,False,False,34.96797332914661,32.782879114115275
"מרכז הקונגרסים, נאות פרס, יצחק נבון",,artwork,34.9631842,32.7847923,False,False,34.96797332914661,32.782879114115275
"מרכז הקונגרסים, נאות פרס, יצחק נבון",,bar,34.9639736,32.7910073,True,True,34.96797332914661,32.782879114115275
"מרכז הקונגרסים, נאות פרס, יצחק נבון",,restaurant,34.9663381,32.7896462,True,True,34.96797332914661,32.782879114115275
"מרכז הקונגרסים, נאות פרס, יצחק נבון",,restaurant,34.9636778,32.7897043,True,True,34.96797332914661,32.782879114115275
"מרכז הקונגרסים, נאות פרס, יצחק נבון",,alcohol,34.9659354,32.7908689,False,False,34.96797332914661,32.782879114115275
"מרכז הקונגרסים, נאות פרס, יצחק נבון",מינה טומיי,restaurant,34.969017,32.7878999,True,True,34.96797332914661,32.782879114115275
"מרכז הקונגרסים, נאות פרס, יצחק נבון",טרק חיפה,bicycle,34.966334,32.7908742,True,False,34.96797332914661,32.782879114115275
"מרכז הקונגרסים, נאות פרס, יצחק נבון",Tesla Supercharger,charging_station,34.964761,32.7893647,False,False,34.96797332914661,32.782879114115275
"מרכז הקונגרסים, נאות פרס, יצחק נבון",,viewpoint,34.972906,32.7847623,False,False,34.96797332914661,32.782879114115275
"מרכז הקונגרסים, נאות פרס, יצחק נבון",,parking_entrance,34.9651844,32.7886889,False,False,34.96797332914661,32.782879114115275
"מרכז הקונגרסים, נאות פרס, יצחק נבון",,parking_entrance,34.9652541,32.7886881,False,False,34.96797332914661,32.782879114115275
"מרכז הקונגרסים, נאות פרס, יצחק נבון",,parking_entrance,34.965922,32.7886808,False,False,34.96797332914661,32.782879114115275
"מרכז הקונגרסים, נאות פרס, יצחק נבון",,parking_entrance,34.9630121,32.7893803,False,False,34.96797332914661,32.782879114115275
"מרכז הקונגרסים, נאות פרס, יצחק נבון",,parking_entrance,34.9629733,32.7893746,False,False,34.96797332914661,32.782879114115275
"מרכז הקונגרסים, נאות פרס, יצחק נבון",,parking_entrance,34.965154,32.7894092,False,False,34.96797332914661,32.782879114115275
"מרכז הקונגרסים, נאות פרס, יצחק נבון",,parking_entrance,34.964796,32.7894114,False,False,34.96797332914661,32.782879114115275
"מרכז הקונגרסים, נאות פרס, יצחק נבון",,parking_entrance,34.9649783,32.7894092,False,False,34.96797332914661,32.782879114115275
"מרכז הקונגרסים, נאות פרס, יצחק נבון",,parking_entrance,34.9659841,32.787379,False,False,34.96797332914661,32.782879114115275
"מרכז הקונגרסים, נאות פרס, יצחק נבון",,parking_entrance,34.9659358,32.7873778,False,False,34.96797332914661,32.782879114115275
"מרכז הקונגרסים, נאות פרס, יצחק נבון",Hermitage,alcohol,34.9652202,32.7909368,False,False,34.96797332914661,32.782879114115275
"מרכז הקונגרסים, נאות פרס, יצחק נבון",Yellow,convenience,34.9640597,32.790942,True,False,34.96797332914661,32.782879114115275
בתי עלמין,HI Haifa,hostel,34.9694481,32.7941567,True,False,34.96516106775627,32.79904881609888
בתי עלמין,בוסתן כיאט,garden,34.9699741,32.8026203,False,False,34.96516106775627,32.79904881609888
בתי עלמין,مُصلى السيّاح,place_of_worship,34.9683134,32.8025715,False,False,34.96516106775627,32.79904881609888
כרמליה,גן מרגלית,kindergarten,34.9736645,32.7976141,False,False,34.97558775046131,32.797512225794485
כרמליה,,recycling,34.9771732,32.7946828,False,False,34.97558775046131,32.797512225794485
כרמליה,,post_box,34.9772148,32.7947086,False,False,34.97558775046131,32.797512225794485
כרמליה,,playground,34.9764033,32.7958114,False,False,34.97558775046131,32.797512225794485
כרמליה,,recycling,34.9789436,32.7959173,False,False,34.97558775046131,32.797512225794485
כרמליה,,recycling,34.9779823,32.7959798,False,False,34.97558775046131,32.797512225794485
כרמליה,,recycling,34.9751213,32.7962005,False,False,34.97558775046131,32.797512225794485
כרמליה,,recycling,34.9765047,32.7961735,False,False,34.97558775046131,32.797512225794485
כרמליה,,post_box,34.977983,32.7961735,False,False,34.97558775046131,32.797512225794485
כרמליה,,recycling,34.9758289,32.7967202,False,False,34.97558775046131,32.797512225794485
כרמליה,,recycling,34.9755164,32.7969759,False,False,34.97558775046131,32.797512225794485
כרמליה,גן דולב,kindergarten,34.9816575,32.7988883,False,False,34.97558775046131,32.797512225794485
כרמליה,גן מרווה,kindergarten,34.9816304,32.7988461,False,False,34.97558775046131,32.797512225794485
כרמליה,,recycling,34.9735224,32.7978776,False,False,34.97558775046131,32.797512225794485
כרמליה,גן מנדרין,kindergarten,34.973584,32.7977493,False,False,34.97558775046131,32.797512225794485
כרמליה,,telephone,34.9781934,32.7964655,False,False,34.97558775046131,32.797512225794485
כרמליה,,playground,34.9732333,32.7980269,False,False,34.97558775046131,32.797512225794485
כרמליה,,drinking_water,34.9734407,32.7983682,False,False,34.97558775046131,32.797512225794485
כרמליה,,playground,34.9734458,32.7984361,False,False,34.97558775046131,32.797512225794485
כרמליה,,recycling,34.975161,32.7990138,False,False,34.97558775046131,32.797512225794485
כרמליה,,parking,34.9795926,32.7974984,False,False,34.97558775046131,32.797512225794485
כרמליה,,recycling,34.9787394,32.799332,False,False,34.97558775046131,32.797512225794485
כרמליה,,recycling,34.9787494,32.7953769,False,False,34.97558775046131,32.797512225794485
כרמליה,,recycling,34.9784178,32.7964386,False,False,34.97558775046131,32.797512225794485
כרמליה,מנדרין,cafe,34.98382,32.7968224,True,True,34.97558775046131,32.797512225794485
כרמליה,צפרירים 1,cafe,34.9837975,32.7967633,True,True,34.97558775046131,32.797512225794485
כרמליה,,post_box,34.9794174,32.7970865,False,False,34.97558775046131,32.797512225794485
כרמליה,,recycling,34.9796037,32.7969693,False,False,34.97558775046131,32.797512225794485
כרמליה,,post_box,34.983277,32.7971742,False,False,34.97558775046131,32.797512225794485
כרמליה,,recycling,34.9814132,32.7977316,False,False,34.97558775046131,32.797512225794485
כרמליה,,drinking_water,34.9765147,32.7956385,False,False,34.97558775046131,32.797512225794485
כרמליה,,viewpoint,34.9710463,32.7981089,False,False,34.97558775046131,32.797512225794485
כרמליה,מיכה,supermarket,34.9800348,32.7988026,True,False,34.97558775046131,32.797512225794485
שמבור,Pasto,restaurant,34.9863143,32.7897674,True,True,34.983480450481416,32.79257693331936
שמבור,מרכז רפואי וטרינרי לחיות מחמד,hospital,34.9847625,32.7950583,False,False,34.983480450481416,32.79257693331936
שמבור,Shany,bakery,34.9843717,32.7960881,True,True,34.983480450481416,32.79257693331936
שמבור,Stella,bar,34.9842477,32.7960747,True,True,34.983480450481416,32.79257693331936
שמבור,Greg,cafe,34.9866924,32.7906594,True,True,34.983480450481416,32.79257693331936
שמבור,תות,bar,34.9867091,32.7904452,True,True,34.983480450481416,32.79257693331936
שמבור,קפה לואיז,cafe,34.983922,32.7963498,True,True,34.983480450481416,32.79257693331936
שמבור,,recycling,34.9848683,32.7919367,False,False,34.983480450481416,32.79257693331936
שמבור,,recycling,34.9837741,32.7934811,False,False,34.983480450481416,32.79257693331936
שמבור,,post_box,34.9840824,32.7922352,False,False,34.983480450481416,32.79257693331936
שמבור,,recycling,34.983693,32.7894985,False,False,34.983480450481416,32.79257693331936
שמבור,,recycling,34.9838368,32.7920019,False,False,34.983480450481416,32.79257693331936
שמבור,קניבר,fast_food,34.9863638,32.7897088,True,True,34.983480450481416,32.79257693331936
שמבור,Domino's,fast_food,34.9863383,32.7901566,True,True,34.983480450481416,32.79257693331936
שמבור,,picnic_table,34.9760332,32.7923453,False,False,34.983480450481416,32.79257693331936
שמבור,גרג קפה,cafe,34.9863693,32.7898266,True,True,34.983480450481416,32.79257693331936
שמבור,Sabich and falafel eyal,fast_food,34.9843397,32.7964967,True,True,34.983480450481416,32.79257693331936
שמבור,Umm Kulthum,restaurant,34.9842488,32.7963696,True,True,34.983480450481416,32.79257693331936
שמבור,,fountain,34.9866098,32.7899836,False,False,34.983480450481416,32.79257693331936
שמבור,,drinking_water,34.9856709,32.7948882,False,False,34.983480450481416,32.79257693331936
שמבור,Charles Andre,hairdresser,34.9853865,32.794843,True,False,34.983480450481416,32.79257693331936
שמבור,שופרסל אקספרס,supermarket,34.9879242,32.7924681,True,False,34.983480450481416,32.79257693331936
"נעמ""ת",,drinking_water,34.9917624,32.7975712,False,False,34.99111126751734,32.79676870039607
ורדיה,,parking,34.9968546,32.7946309,False,False,34.9975081931564,32.793672535305575
רמת הדר,,,,,,,34.997364830001146,32.79924560228346
כרמל מרכזי- שד' קיש,,viewpoint,34.9863831,32.809255,False,False,34.99143847709235,32.80334844776559
מרכז הכרמל,פז,fuel,34.9863053,32.8032875,False,False,34.9865226465693,32.8014538850318
מרכז הכרמל,ארומה,cafe,34.9879288,32.8045265,True,True,34.9865226465693,32.8014538850318
מרכז הכרמל,קפה גרג,cafe,34.9867738,32.8040032,True,True,34.9865226465693,32.8014538850318
מרכז הכרמל,,fast_food,34.9871699,32.8043383,True,True,34.9865226465693,32.8014538850318
מרכז הכרמל,Cafein,cafe,34.9874637,32.8039758,True,True,34.9865226465693,32.8014538850318
מרכז הכרמל,Carmel Store,kiosk,34.9870634,32.8040618,True,False,34.9865226465693,32.8014538850318
מרכז הכרמל,Auditorium Square,parking,34.9853985,32.8030994,False,False,34.9865226465693,32.8014538850318
מרכז הכרמל,,parking,34.9880756,32.8061552,False,False,34.9865226465693,32.8014538850318
מרכז הכרמל,שופרסל שלי,supermarket,34.9867633,32.8046583,True,False,34.9865226465693,32.8014538850318
מרכז הכרמל,שופרסל קלר שלי,supermarket,34.9832261,32.8022955,True,False,34.9865226465693,32.8014538850318
מרכז הכרמל,אגאדיר,restaurant,34.983151,32.802043,True,True,34.9865226465693,32.8014538850318
מרכז הכרמל,,restaurant,34.985801,32.8038196,True,True,34.9865226465693,32.8014538850318
מרכז הכרמל,ווק,fast_food,34.9864984,32.8036753,True,True,34.9865226465693,32.8014538850318
מרכז הכרמל,ריאלי,school,34.986212,32.8046686,False,False,34.9865226465693,32.8014538850318
מרכז הכרמל,Gane Dan Hotel,hotel,34.99051,32.8026666,True,False,34.9865226465693,32.8014538850318
מרכז הכרמל,,shelter,34.9836669,32.8010832,False,False,34.9865226465693,32.8014538850318
מרכז הכרמל,,drinking_water,34.9834644,32.7991548,False,False,34.9865226465693,32.8014538850318
מרכז הכרמל,,shelter,34.985483,32.8035208,False,False,34.9865226465693,32.8014538850318
מרכז הכרמל,,taxi,34.986428,32.8033832,False,False,34.9865226465693,32.8014538850318
מרכז הכרמל,ג'פניקה,restaurant,34.9875971,32.804972,True,True,34.9865226465693,32.8014538850318
מרכז הכרמל,פיצה מאנצ׳,fast_food,34.986659,32.803984,True,True,34.9865226465693,32.8014538850318
מרכז הכרמל,Hasushia,fast_food,34.986567,32.804029,True,True,34.9865226465693,32.8014538850318
מרכז הכרמל,Lior,beauty,34.9863034,32.8043775,True,False,34.9865226465693,32.8014538850318
מרכז הכרמל,Ayala,travel_agency,34.9865506,32.8043437,True,False,34.9865226465693,32.8014538850318
מרכז הכרמל,אגואיסטית,hairdresser,34.98646,32.804047,True,False,34.9865226465693,32.8014538850318
מרכז הכרמל,,bench,34.9861716,32.8042982,False,False,34.9865226465693,32.8014538850318
מרכז הכרמל,Armon Tours,travel_agency,34.9856169,32.8045097,True,False,34.9865226465693,32.8014538850318
מרכז הכרמל,שען,hardware,34.986194,32.804061,True,False,34.9865226465693,32.8014538850318
מרכז הכרמל,Dr. E. Solomon,dentist,34.9856875,32.8046503,True,False,34.9865226465693,32.8014538850318
מרכז הכרמל,"Primes, Shiloh, Givon, Meir",lawyer,34.9852903,32.8045956,True,False,34.9865226465693,32.8014538850318
מרכז הכרמל,הבית של באני ודין,kindergarten,34.9853,32.804284,False,False,34.9865226465693,32.8014538850318
מרכז הכרמל,"נינג'יטסו, מועדון בוג'ין קאן, חיפה",dojo,34.9845442,32.8039677,False,False,34.9865226465693,32.8014538850318
מרכז הכרמל,,veterinary,34.984809,32.804183,True,False,34.9865226465693,32.8014538850318
מרכז הכרמל,מרכנתיל,bank,34.9857366,32.8031198,False,False,34.9865226465693,32.8014538850318
מרכז הכרמל,קפהנטו,cafe,34.9841295,32.8019694,True,True,34.9865226465693,32.8014538850318
מרכז הכרמל,כרמלה בר מסעדה,restaurant,34.9836038,32.8016131,True,True,34.9865226465693,32.8014538850318
מרכז הכרמל,,recycling,34.9860877,32.8033485,False,False,34.9865226465693,32.8014538850318
מרכז הכרמל,סטימצקי,books,34.9872675,32.8037224,True,False,34.9865226465693,32.8014538850318
מרכז הכרמל,Rieker Dorndorff,shoes,34.9867555,32.8035879,True,False,34.9865226465693,32.8014538850318
מרכז הכרמל,,telephone,34.9868435,32.8036176,False,False,34.9865226465693,32.8014538850318
מרכז הכרמל,בית מרקחת מרכז,pharmacy,34.9868196,32.8036858,True,False,34.9865226465693,32.8014538850318
מרכז הכרמל,,bakery,34.9868487,32.8037331,True,True,34.9865226465693,32.8014538850318
מרכז הכרמל,,post_box,34.9869065,32.8037113,False,False,34.9865226465693,32.8014538850318
מרכז הכרמל,,optician,34.9868822,32.8038236,True,False,34.9865226465693,32.8014538850318
מרכז הכרמל,,kiosk,34.986911,32.8037469,True,False,34.9865226465693,32.8014538850318
מרכז הכרמל,סנדוויץ' בר,fast_food,34.9869166,32.8038543,True,True,34.9865226465693,32.8014538850318
מרכז הכרמל,רז פלוס ערוגת הבושם,cosmetics,34.986945,32.8038917,True,False,34.9865226465693,32.8014538850318
מרכז הכרמל,קפה גן האם,cafe,34.9874006,32.8048164,True,True,34.9865226465693,32.8014538850318
מרכז הכרמל,בנק דיסקונט,bank,34.987147,32.8041543,False,False,34.9865226465693,32.8014538850318
מרכז הכרמל,Sleek,restaurant,34.986841,32.8048753,True,True,34.9865226465693,32.8014538850318
מרכז הכרמל,,fast_food,34.9868982,32.8039459,True,True,34.9865226465693,32.8014538850318
מרכז הכרמל,קנדיס,convenience,34.987338,32.8045522,True,False,34.9865226465693,32.8014538850318
מרכז הכרמל,Cremcaffe,bakery,34.9871915,32.8046203,True,True,34.9865226465693,32.8014538850318
מרכז הכרמל,,billiards,34.986841,32.8046951,False,False,34.9865226465693,32.8014538850318
מרכז הכרמל,אבי טל,hairdresser,34.9878148,32.8053003,True,False,34.9865226465693,32.8014538850318
מרכז הכרמל,נעלי כרמל,shoes,34.9881767,32.8046855,True,False,34.9865226465693,32.8014538850318
מרכז הכרמל,הבנק,restaurant,34.9879877,32.8049411,True,True,34.9865226465693,32.8014538850318
מרכז הכרמל,New York Style,fast_food,34.9880811,32.8045487,True,True,34.9865226465693,32.8014538850318
מרכז הכרמל,Nuances,clothes,34.9881201,32.8046052,True,False,34.9865226465693,32.8014538850318
מרכז הכרמל,Photo and Video Services,photo,34.9880971,32.804571,True,False,34.9865226465693,32.8014538850318
מרכז הכרמל,וואלה,restaurant,34.9882439,32.8047801,True,True,34.9865226465693,32.8014538850318
מרכז הכרמל,,pet,34.9881378,32.804632,False,False,34.9865226465693,32.8014538850318
מרכז הכרמל,,fast_food,34.988159,32.8046632,True,True,34.9865226465693,32.8014538850318
מרכז הכרמל,,confectionery,34.9881944,32.8047138,True,False,34.9865226465693,32.8014538850318
מרכז הכרמל,,hairdresser,34.9882192,32.8047435,True,False,34.9865226465693,32.8014538850318
מרכז הכרמל,Chocolata,cafe,34.9875533,32.8040976,True,True,34.9865226465693,32.8014538850318
מרכז הכרמל,לה גופרה,fast_food,34.987115,32.8040965,True,True,34.9865226465693,32.8014538850318
מרכז הכרמל,בנק לאומי,bank,34.9877288,32.8043028,False,False,34.9865226465693,32.8014538850318
מרכז הכרמל,,books,34.9874229,32.8039463,True,False,34.9865226465693,32.8014538850318
מרכז הכרמל,,toys,34.9875928,32.8041188,True,False,34.9865226465693,32.8014538850318
מרכז הכרמל,,kiosk,34.987637,32.8043271,True,False,34.9865226465693,32.8014538850318
מרכז הכרמל,לגנדה,fast_food,34.9871318,32.8035447,True,True,34.9865226465693,32.8014538850318
מרכז הכרמל,אופטיקנה,optician,34.9873024,32.8036597,True,False,34.9865226465693,32.8014538850318
מרכז הכרמל,UV,clothes,34.9870582,32.8034136,True,False,34.9865226465693,32.8014538850318
מרכז הכרמל,,bank,34.9875538,32.8038764,False,False,34.9865226465693,32.8014538850318
מרכז הכרמל,ForexChange,bureau_de_change,34.9867671,32.8029987,True,False,34.9865226465693,32.8014538850318
מרכז הכרמל,ג'ירף,restaurant,34.9869273,32.8032519,True,True,34.9865226465693,32.8014538850318
מרכז הכרמל,Meat,restaurant,34.9871842,32.8032208,True,True,34.9865226465693,32.8014538850318
מרכז הכרמל,בנק מזרחי טפחות,bank,34.9861232,32.8027526,False,False,34.9865226465693,32.8014538850318
מרכז הכרמל,רובנס,restaurant,34.9868989,32.803228,True,True,34.9865226465693,32.8014538850318
מרכז הכרמל,The Bear Inn,pub,34.9866604,32.8028142,True,True,34.9865226465693,32.8014538850318
מרכז הכרמל,ורדים,clothes,34.9867549,32.8030941,True,False,34.9865226465693,32.8014538850318
מרכז הכרמל,זיגי שאול,optician,34.9865166,32.8028693,True,False,34.9865226465693,32.8014538850318
מרכז הכרמל,,fast_food,34.9863931,32.8028517,True,True,34.9865226465693,32.8014538850318
מרכז הכרמל,,convenience,34.9864553,32.8028685,True,False,34.9865226465693,32.8014538850318
מרכז הכרמל,,fast_food,34.9867225,32.8030413,True,True,34.9865226465693,32.8014538850318
מרכז הכרמל,בית מרקחת כרמל,pharmacy,34.9868076,32.8031418,True,False,34.9865226465693,32.8014538850318
מרכז הכרמל,,telephone,34.9867253,32.803177,False,False,34.9865226465693,32.8014538850318
מרכז הכרמל,גן רעות,kindergarten,34.9828581,32.8017173,False,False,34.9865226465693,32.8014538850318
מרכז הכרמל,Pizza Hut,restaurant,34.9840423,32.8019162,True,True,34.9865226465693,32.8014538850318
מרכז הכרמל,Dan Gardens Haifa,hotel,34.9900815,32.8031605,True,False,34.9865226465693,32.8014538850318
מרכז הכרמל,Beat,nightclub,34.9870953,32.8047951,True,False,34.9865226465693,32.8014538850318
מרכז הכרמל,Beer House Pub,pub,34.987203,32.8055523,True,True,34.9865226465693,32.8014538850318
מרכז הכרמל,גינצבורג פרחים,florist,34.9870567,32.8040398,True,False,34.9865226465693,32.8014538850318
מרכז הכרמל,Rock 'ink' Roll Tattoo,tattoo,34.9871288,32.8041249,True,False,34.9865226465693,32.8014538850318
מרכז הכרמל,Taboon in the Garden,fast_food,34.9872939,32.8053907,True,True,34.9865226465693,32.8014538850318
מרכז הכרמל,,photo,34.9872973,32.8045466,True,False,34.9865226465693,32.8014538850318
מרכז הכרמל,לחם ארז,bakery,34.9849534,32.7993112,True,True,34.9865226465693,32.8014538850318
מרכז הכרמל,שני,cafe,34.9849662,32.7996114,True,True,34.9865226465693,32.8014538850318
מרכז הכרמל,בית הפנקייק,restaurant,34.9849524,32.7998018,True,True,34.9865226465693,32.8014538850318
מרכז הכרמל,בורקס העגלה,fast_food,34.9840611,32.7970562,True,True,34.9865226465693,32.8014538850318
מרכז הכרמל,Danish,bakery,34.9841834,32.7976702,True,True,34.9865226465693,32.8014538850318
מרכז הכרמל,,fountain,34.984501,32.8030121,False,False,34.9865226465693,32.8014538850318
מרכז הכרמל,,shelter,34.9829822,32.7973824,False,False,34.9865226465693,32.8014538850318
מרכז הכרמל,,recycling,34.9846047,32.7996173,False,False,34.9865226465693,32.8014538850318
מרכז הכרמל,,recycling,34.9823073,32.7975065,False,False,34.9865226465693,32.8014538850318
מרכז הכרמל,,fountain,34.9842368,32.8026942,False,False,34.9865226465693,32.8014538850318
מרכז הכרמל,בנק הפועלים,bank,34.9877747,32.8053199,False,False,34.9865226465693,32.8014538850318
מרכז הכרמל,חומרי בניין נעים,hardware,34.9868081,32.8036365,True,False,34.9865226465693,32.8014538850318
מרכז הכרמל,Mobile4You,mobile_phone,34.9867455,32.8035323,True,False,34.9865226465693,32.8014538850318
מרכז הכרמל,מקום מעורב,fast_food,34.9867118,32.8034849,True,True,34.9865226465693,32.8014538850318
מרכז הכרמל,שווארמה בילי,fast_food,34.9866845,32.8034605,True,True,34.9865226465693,32.8014538850318
מרכז הכרמל,סופר סטוק,houseware,34.9866382,32.8034261,True,False,34.9865226465693,32.8014538850318
מרכז הכרמל,Rola levantine kitchen,restaurant,34.9842825,32.8021118,True,True,34.9865226465693,32.8014538850318
מרכז הכרמל,Elkheir druze cuisines,restaurant,34.9855897,32.8028338,True,True,34.9865226465693,32.8014538850318
מרכז הכרמל,,post_box,34.9872922,32.8044105,False,False,34.9865226465693,32.8014538850318
מרכז הכרמל,,waste_basket,34.9873316,32.8043844,False,False,34.9865226465693,32.8014538850318
מרכז הכרמל,,bench,34.987298,32.8043375,False,False,34.9865226465693,32.8014538850318
מרכז הכרמל,,drinking_water,34.9887448,32.8000572,False,False,34.9865226465693,32.8014538850318
מרכז הכרמל,,drinking_water,34.9881444,32.7998611,False,False,34.9865226465693,32.8014538850318
מרכז הכרמל,,drinking_water,34.98898,32.7997298,False,False,34.9865226465693,32.8014538850318
מרכז הכרמל,גן מניה שוחט,picnic_site,34.9843849,32.8029878,False,False,34.9865226465693,32.8014538850318
מרכז הכרמל,אלי ביטון,hairdresser,34.9875267,32.8040579,True,False,34.9865226465693,32.8014538850318
מרכז הכרמל,Wok Street,fast_food,34.987081,32.8034823,True,True,34.9865226465693,32.8014538850318
מרכז הכרמל,Vape Bar,e-cigarette,34.9869555,32.8033359,True,False,34.9865226465693,32.8014538850318
מרכז הכרמל,Leggenda,cafe,34.9871944,32.8036416,True,True,34.9865226465693,32.8014538850318
מרכז הכרמל,אופטיקה ברגר,optician,34.9870588,32.8034517,True,False,34.9865226465693,32.8014538850318
מרכז הכרמל,Zetsy Burger,fast_food,34.9871076,32.8035166,True,True,34.9865226465693,32.8014538850318
מרכז הכרמל,הטחנה,butcher,34.9875005,32.8040107,True,False,34.9865226465693,32.8014538850318
מרכז הכרמל,אורנים שוק פירות וירקות,supermarket,34.9832061,32.8022217,True,False,34.9865226465693,32.8014538850318
מרכז הכרמל,ביין והסיגר,alcohol,34.9856311,32.8034489,False,False,34.9865226465693,32.8014538850318
מרכז הכרמל,Pure & Blend,tea,34.9879171,32.806211,True,True,34.9865226465693,32.8014538850318
מרכז הכרמל,טיב טעם בעיר,supermarket,34.9863908,32.803591,True,False,34.9865226465693,32.8014538850318
מרכז הכרמל,Musik unter Freunden,artwork,34.9850264,32.8030945,False,False,34.9865226465693,32.8014538850318
מרכז הכרמל,אור הכרמל,place_of_worship,34.9880143,32.8057819,False,False,34.9865226465693,32.8014538850318
מרכז הכרמל,,toilets,34.9869142,32.8064186,False,False,34.9865226465693,32.8014538850318
מרכז הכרמל,Birdy,cafe,34.9843025,32.8022071,True,True,34.9865226465693,32.8014538850318
מרכז הכרמל,Carrefour Market,supermarket,34.9857794,32.8034251,True,False,34.9865226465693,32.8014538850318
כבירים,ואדי שיח,information,34.9820768,32.7989804,False,False,34.978810334680816,32.803239737376195
כבירים,שקמה,kindergarten,34.9803856,32.8020314,False,False,34.978810334680816,32.803239737376195
כבירים,,greengrocer,34.9822889,32.8006217,True,False,34.978810334680816,32.803239737376195
כבירים,,recycling,34.9836105,32.8034271,False,False,34.978810334680816,32.803239737376195
כבירים,,recycling,34.9828255,32.802112,False,False,34.978810334680816,32.803239737376195
כבירים,שתיים סוכר,cafe,34.9822192,32.8006361,True,True,34.978810334680816,32.803239737376195
כבירים,,telephone,34.9774402,32.8021853,False,False,34.978810334680816,32.803239737376195
כבירים,,recycling,34.9772995,32.8023311,False,False,34.978810334680816,32.803239737376195
כבירים,,recycling,34.9760512,32.8017346,False,False,34.978810334680816,32.803239737376195
כבירים,,recycling,34.9762941,32.8029127,False,False,34.978810334680816,32.803239737376195
כבירים,,post_box,34.9796417,32.8016478,False,False,34.978810334680816,32.803239737376195
כבירים,,recycling,34.9807675,32.8012856,False,False,34.978810334680816,32.803239737376195
כבירים,,recycling,34.9754227,32.8033002,False,False,34.978810334680816,32.803239737376195
כבירים,,recycling,34.9752876,32.8019802,False,False,34.978810334680816,32.803239737376195
כבירים,,playground,34.9803963,32.8021301,False,False,34.978810334680816,32.803239737376195
כבירים,,picnic_site,34.9802518,32.8021086,False,False,34.978810334680816,32.803239737376195
כבירים,,drinking_water,34.9785071,32.8061489,False,False,34.978810334680816,32.803239737376195
כבירים,,recycling,34.9803399,32.8044922,False,False,34.978810334680816,32.803239737376195
כבירים,,recycling,34.9806713,32.8041569,False,False,34.978810334680816,32.803239737376195
כבירים,,viewpoint,34.9737919,32.8025223,False,False,34.978810334680816,32.803239737376195
כבירים,,recycling,34.9818483,32.8036721,False,False,34.978810334680816,32.803239737376195
כבירים,,recycling,34.9830112,32.8024,False,False,34.978810334680816,32.803239737376195
כבירים,,recycling,34.980586,32.8034319,False,False,34.978810334680816,32.803239737376195
כבירים,,bench,34.9820707,32.798966,False,False,34.978810334680816,32.803239737376195
כרמל מערבי,,pharmacy,34.9652004,32.8161516,True,False,34.97332014730749,32.81061003845472
כרמל מערבי,Dr. Katz Alexander,dentist,34.9851231,32.8046718,True,False,34.97332014730749,32.81061003845472
כרמל מערבי,,recycling,34.9746189,32.8104144,False,False,34.97332014730749,32.81061003845472
כרמל מערבי,,police,34.9685561,32.8123713,False,False,34.97332014730749,32.81061003845472
כרמל מערבי,אוהדסטור,convenience,34.9761967,32.8075244,True,False,34.97332014730749,32.81061003845472
כרמל מערבי,מכולת האח הגדול,convenience,34.9676136,32.8132984,True,False,34.97332014730749,32.81061003845472
כרמל מערבי,,waste_basket,34.9744427,32.8087246,False,False,34.97332014730749,32.81061003845472
כרמל מערבי,,recycling,34.9743997,32.8087111,False,False,34.97332014730749,32.81061003845472
כרמל מערבי,,waste_basket,34.9749134,32.8092431,False,False,34.97332014730749,32.81061003845472
כרמל מערבי,,bench,34.9816718,32.8067477,False,False,34.97332014730749,32.81061003845472
כרמל מערבי,,bench,34.9787119,32.8092824,False,False,34.97332014730749,32.81061003845472
כרמל מערבי,,recycling,34.9814812,32.8067561,False,False,34.97332014730749,32.81061003845472
כרמל מערבי,,bench,34.9811679,32.8071327,False,False,34.97332014730749,32.81061003845472
כרמל מערבי,,bench,34.9840854,32.8050827,False,False,34.97332014730749,32.81061003845472
כרמל מערבי,,bench,34.9836119,32.8054659,False,False,34.97332014730749,32.81061003845472
כרמל מערבי,,bench,34.9818496,32.8064635,False,False,34.97332014730749,32.81061003845472
כרמל מערבי,,bench,34.9798329,32.808547,False,False,34.97332014730749,32.81061003845472
כרמל מערבי,,recycling,34.9781645,32.8093615,False,False,34.97332014730749,32.81061003845472
כרמל מערבי,,bench,34.9826041,32.8059831,False,False,34.97332014730749,32.81061003845472
כרמל מערבי,,recycling,34.9834394,32.8055971,False,False,34.97332014730749,32.81061003845472
כרמל מערבי,AM:PM City Market,supermarket,34.9761863,32.8078627,True,False,34.97332014730749,32.81061003845472
קריית שמואל,,,,,,,35.069198301476604,32.8363210216793
קריית חיים מערבית,,,,,,,35.05855134887594,32.83214584884347
חוות המיכלים,קשת טעמים,convenience,35.0579883,32.823425,True,False,35.05247583077833,32.825723041963734
אצטדיון קריית חיים,,,,,,,35.061583857191515,32.824470541689664
קריית חיים מזרחית,,pharmacy,35.0736944,32.8195994,True,False,35.07035998917011,32.82158743731925
קריית חיים מזרחית,תיאטרון הצפון\בית העם,theatre,35.0740132,32.8218116,False,False,35.07035998917011,32.82158743731925
קריית חיים מזרחית,,supermarket,35.0696475,32.8224125,True,False,35.07035998917011,32.82158743731925
קריית חיים מזרחית,מרבך,pharmacy,35.0707609,32.8198255,True,False,35.07035998917011,32.82158743731925
קריית חיים מזרחית,,school,35.0651977,32.819268,False,False,35.07035998917011,32.82158743731925
קריית חיים מזרחית,,parking,35.0705701,32.8199289,False,False,35.07035998917011,32.82158743731925
קריית חיים מזרחית,,playground,35.0674236,32.8214688,False,False,35.07035998917011,32.82158743731925
קריית חיים מזרחית,ביס&STOP,fast_food,35.0704023,32.8207118,True,True,35.07035998917011,32.82158743731925
קריית חיים מזרחית,,post_office,35.0678287,32.8222567,False,False,35.07035998917011,32.82158743731925
קריית חיים מזרחית,,cafe,35.0670815,32.8226516,True,True,35.07035998917011,32.82158743731925
קריית חיים מזרחית,קפה גרג,restaurant,35.0703872,32.821194,True,True,35.07035998917011,32.82158743731925
קריית חיים מזרחית,"שופרסל אח""י אילת",supermarket,35.0698281,32.8215226,True,False,35.07035998917011,32.82158743731925
קריית חיים מזרחית,בנק לאומי,bank,35.0707498,32.8210242,False,False,35.07035998917011,32.82158743731925
קריית חיים מזרחית,,dog_park,35.0699928,32.8232915,False,False,35.07035998917011,32.82158743731925
קריית חיים מזרחית,ושבעת,restaurant,35.0749796,32.8185043,True,True,35.07035998917011,32.82158743731925
קריית חיים מזרחית,,place_of_worship,35.0748076,32.818581,False,False,35.07035998917011,32.82158743731925
כבאביר,,drinking_water,34.9693738,32.8051478,False,False,34.96989187006669,32.80600385700932
כבאביר,,supermarket,34.9714215,32.8050109,True,False,34.96989187006669,32.80600385700932
כבאביר,מרכז הבשר כבאביר,butcher,34.9732932,32.804634,True,False,34.96989187006669,32.80600385700932
כבאביר,Good Baguette,cafe,34.9733404,32.8047102,True,True,34.96989187006669,32.80600385700932
כבאביר,,viewpoint,34.9691705,32.8050299,False,False,34.96989187006669,32.80600385700932
כבאביר,,parking,34.9703066,32.8028905,False,False,34.96989187006669,32.80600385700932
רמת שאול,פז,fuel,34.9729242,32.8204969,False,False,34.96953127615118,32.82221958289523
רמת שאול,שופרסל שלי,supermarket,34.9736327,32.8205458,True,False,34.96953127615118,32.82221958289523
רמת שאול,,drinking_water,34.9654499,32.8211163,False,False,34.96953127615118,32.82221958289523
רמת שאול,,drinking_water,34.9708182,32.8208795,False,False,34.96953127615118,32.82221958289523
רמת שאול,,drinking_water,34.9715368,32.8200369,False,False,34.96953127615118,32.82221958289523
רמת שאול,,drinking_water,34.9717763,32.8233039,False,False,34.96953127615118,32.82221958289523
רמת שאול,,parking_entrance,34.9682952,32.8227,False,False,34.96953127615118,32.82221958289523
רמת שאול,,parking_entrance,34.9684615,32.8226984,False,False,34.96953127615118,32.82221958289523
רמת שאול,C Pharm,pharmacy,34.9739284,32.8203651,True,False,34.96953127615118,32.82221958289523
רמת שאול,,bench,34.9679851,32.8204724,False,False,34.96953127615118,32.82221958289523
רמת שאול,,bench,34.9677685,32.8201029,False,False,34.96953127615118,32.82221958289523
רמת שאול,,bench,34.967825,32.8201787,False,False,34.96953127615118,32.82221958289523
רמת שאול,,bench,34.9677662,32.8202094,False,False,34.96953127615118,32.82221958289523
רמת שאול,,bench,34.9677363,32.8202343,False,False,34.96953127615118,32.82221958289523
רמת שאול,K.S.P.,electronics,34.974014,32.8201582,True,False,34.96953127615118,32.82221958289523
רמת שאול,לאומית,clinic,34.9742942,32.8199307,True,False,34.96953127615118,32.82221958289523
רמת שאול,,waste_disposal,34.9747416,32.8198674,False,False,34.96953127615118,32.82221958289523
רמת שאול,,dog_park,34.9714867,32.8207615,False,False,34.96953127615118,32.82221958289523
כרמל צרפתי,בית ספר יסודי טשרניחובסקי,school,34.9757557,32.8208179,False,False,34.97518932282665,32.82061064702779
כרמל צרפתי,מצפור סן פרנסיסקו,viewpoint,34.9700017,32.828083,False,False,34.97518932282665,32.82061064702779
כרמל צרפתי,Santa Maria Café,cafe,34.9693867,32.8270165,True,True,34.97518932282665,32.82061064702779
כרמל צרפתי,,toilets,34.9694782,32.8269691,False,False,34.97518932282665,32.82061064702779
כרמל צרפתי,פסל הבתולה,artwork,34.9696153,32.8280598,False,False,34.97518932282665,32.82061064702779
כרמל צרפתי,كلاماريس,restaurant,34.9701421,32.8280445,True,True,34.97518932282665,32.82061064702779
כרמל צרפתי,גן האחים,playground,34.9787914,32.8166984,False,False,34.97518932282665,32.82061064702779
כרמל צרפתי,Heine,bar,34.979518,32.8166991,True,True,34.97518932282665,32.82061064702779
כרמל צרפתי,,drinking_water,34.9773691,32.8168422,False,False,34.97518932282665,32.82061064702779
כרמל צרפתי,,drinking_water,34.978755,32.8167441,False,False,34.97518932282665,32.82061064702779
כרמל צרפתי,,bench,34.9768037,32.8213644,False,False,34.97518932282665,32.82061064702779
כרמל צרפתי,,picnic_table,34.9772871,32.8215555,False,False,34.97518932282665,32.82061064702779
כרמל צרפתי,,bench,34.9768417,32.8210489,False,False,34.97518932282665,32.82061064702779
כרמל צרפתי,,bench,34.9770838,32.8210319,False,False,34.97518932282665,32.82061064702779
כרמל צרפתי,,bench,34.9770634,32.8210508,False,False,34.97518932282665,32.82061064702779
כרמל צרפתי,,bench,34.9768345,32.8210598,False,False,34.97518932282665,32.82061064702779
כרמל צרפתי,,drinking_water,34.9766421,32.8211523,False,False,34.97518932282665,32.82061064702779
כרמל צרפתי,,bench,34.976837,32.8210128,False,False,34.97518932282665,32.82061064702779
כרמל צרפתי,,bench,34.9770004,32.8210544,False,False,34.97518932282665,32.82061064702779
כרמל צרפתי,,bench,34.9767172,32.8212052,False,False,34.97518932282665,32.82061064702779
כרמל צרפתי,,bench,34.9768482,32.8210388,False,False,34.97518932282665,32.82061064702779
כרמל צרפתי,,bench,34.9767295,32.8212567,False,False,34.97518932282665,32.82061064702779
כרמל צרפתי,,bench,34.9766598,32.8210662,False,False,34.97518932282665,32.82061064702779
כרמל צרפתי,,drinking_water,34.9766991,32.8210876,False,False,34.97518932282665,32.82061064702779
כרמל צרפתי,,bench,34.9768233,32.8210059,False,False,34.97518932282665,32.82061064702779
כרמל צרפתי,,bench,34.9768942,32.8211534,False,False,34.97518932282665,32.82061064702779
כרמל צרפתי,,bench,34.976926,32.8211222,False,False,34.97518932282665,32.82061064702779
כרמל צרפתי,,viewpoint,34.9769977,32.8212033,False,False,34.97518932282665,32.82061064702779
כרמל צרפתי,,bench,34.9769623,32.8210437,False,False,34.97518932282665,32.82061064702779
כרמל צרפתי,,bench,34.9664694,32.8273477,False,False,34.97518932282665,32.82061064702779
כרמל צרפתי,Stella Maris Basilica,place_of_worship,34.9701047,32.8272223,False,False,34.97518932282665,32.82061064702779
כרמל צרפתי,,bench,34.9761782,32.8203756,False,False,34.97518932282665,32.82061064702779
כרמל צרפתי,,bench,34.9763057,32.8203913,False,False,34.97518932282665,32.82061064702779
כרמל צרפתי,,bench,34.9761886,32.8203502,False,False,34.97518932282665,32.82061064702779
כרמל צרפתי,,bench,34.9762413,32.8200852,False,False,34.97518932282665,32.82061064702779
כרמל צרפתי,,bench,34.9760975,32.8203261,False,False,34.97518932282665,32.82061064702779
כרמל צרפתי,,drinking_water,34.9763383,32.8201892,False,False,34.97518932282665,32.82061064702779
כרמל צרפתי,,bench,34.9762815,32.8201745,False,False,34.97518932282665,32.82061064702779
כרמל צרפתי,,waste_disposal,34.9758437,32.8193172,False,False,34.97518932282665,32.82061064702779
כרמל צרפתי,,waste_disposal,34.9751804,32.8198383,False,False,34.97518932282665,32.82061064702779
כרמל צרפתי,,waste_disposal,34.9744064,32.8206714,False,False,34.97518932282665,32.82061064702779
רמת התשבי,דן כרמל,hotel,34.984995,32.8100043,True,False,34.97899057562514,32.812596577326964
רמת התשבי,דלק,fuel,34.9811692,32.8132042,False,False,34.97899057562514,32.812596577326964
רמת התשבי,,toilets,34.9855333,32.810793,False,False,34.97899057562514,32.812596577326964
רמת התשבי,Bet- Shalom,hotel,34.9860415,32.8072883,True,False,34.97899057562514,32.812596577326964
רמת התשבי,דואר ישראל,post_office,34.9815808,32.8134633,False,False,34.97899057562514,32.812596577326964
רמת התשבי,,playground,34.9850004,32.8108234,False,False,34.97899057562514,32.812596577326964
רמת התשבי,יעל עיצוב שיער,hairdresser,34.9814823,32.8135056,True,False,34.97899057562514,32.812596577326964
רמת התשבי,אטליז שמחה,butcher,34.9815196,32.813489,True,False,34.97899057562514,32.812596577326964
רמת התשבי,,drinking_water,34.9854241,32.8107134,False,False,34.97899057562514,32.812596577326964
רמת התשבי,,bicycle_repair_station,34.986808,32.8079236,False,False,34.97899057562514,32.812596577326964
רמת התשבי,Andre Suidan,bar,34.985768,32.8082296,True,True,34.97899057562514,32.812596577326964
עבאס,,viewpoint,34.985037,32.812544,False,False,34.986468434918734,32.81520364514589
עבאס,,drinking_water,34.9860841,32.812306,False,False,34.986468434918734,32.81520364514589
עבאס,הגנים הבהאיים,attraction,34.9886032,32.8172602,False,False,34.986468434918734,32.81520364514589
עבאס,הגנים הבהאים,viewpoint,34.9852212,32.8114901,False,False,34.986468434918734,32.81520364514589
עבאס,,supermarket,34.9902886,32.8126229,True,False,34.986468434918734,32.81520364514589
עבאס,,toilets,34.9885712,32.8141286,False,False,34.986468434918734,32.81520364514589
עבאס,,viewpoint,34.9843315,32.8151315,False,False,34.986468434918734,32.81520364514589
עבאס,,attraction,34.9841044,32.812049,False,False,34.986468434918734,32.81520364514589
עבאס,,government,34.9902434,32.8161955,False,False,34.986468434918734,32.81520364514589
עבאס,הגנים הבהאים,attraction,34.9869232,32.8117332,False,False,34.986468434918734,32.81520364514589
מסדה,בית כנסת עדת ישורון,place_of_worship,34.9941005,32.8092814,False,False,34.99226640465385,32.81043966526948
מסדה,קפה מסדה,cafe,34.9938179,32.8094694,True,True,34.99226640465385,32.81043966526948
מסדה,קפה פאזל,cafe,34.9933508,32.8095421,True,True,34.99226640465385,32.81043966526948
מסדה,בריין וואש - מכבסה אוטומטית,laundry,34.9934297,32.809507,True,False,34.99226640465385,32.81043966526948
מסדה,"""Inside Out"" סושי בר",restaurant,34.993513,32.8094641,True,True,34.99226640465385,32.81043966526948
מסדה,בר-קפה יערה,cafe,34.9951766,32.8082357,True,True,34.99226640465385,32.81043966526948
מסדה,הפינה,cafe,34.9915826,32.8102781,True,True,34.99226640465385,32.81043966526948
מסדה,,cafe,34.9938957,32.8094247,True,True,34.99226640465385,32.81043966526948
מסדה,,restaurant,34.9914458,32.8093674,True,True,34.99226640465385,32.81043966526948
מסדה,,cafe,34.9931816,32.8098693,True,True,34.99226640465385,32.81043966526948
מסדה,,restaurant,34.9939043,32.8094178,True,True,34.99226640465385,32.81043966526948
מסדה,,shelter,34.9947011,32.8095966,False,False,34.99226640465385,32.81043966526948
הדר עליון,האיטלקיה החמה,restaurant,34.9947222,32.8075529,True,True,34.993007815986005,32.80659161782611
הדר עליון,Arlozorov,alcohol,34.9947343,32.8077548,False,False,34.993007815986005,32.80659161782611
הדר עליון,Mimino,restaurant,34.9930732,32.8080048,True,True,34.993007815986005,32.80659161782611
הדר עליון,שלתי הזקן וופורייזרים סיגריות אלקטרוניות,variety_store,34.9949605,32.8078272,True,False,34.993007815986005,32.80659161782611
הדר עליון,,information,34.9913216,32.806387,False,False,34.993007815986005,32.80659161782611
הדר עליון,,apartment,34.9892074,32.8105065,True,False,34.993007815986005,32.80659161782611
המיימוני,,place_of_worship,35.0005209,32.8011419,False,False,34.99865215740666,32.80147766999077
הדר מרכז,מקדונלד'ס,fast_food,34.9975984,32.8112825,True,True,34.99786856878578,32.810899565665345
הדר מרכז,,fuel,34.9967282,32.815548,False,False,34.99786856878578,32.810899565665345
הדר מרכז,,toilets,35.0003768,32.8071057,False,False,34.99786856878578,32.810899565665345
הדר מרכז,,fast_food,34.997119,32.8147385,True,True,34.99786856878578,32.810899565665345
הדר מרכז,,supermarket,34.997417,32.8153173,True,False,34.99786856878578,32.810899565665345
הדר מרכז,סופר-פארם,pharmacy,34.9955771,32.8133396,True,False,34.99786856878578,32.810899565665345
הדר מרכז,כללית - ארמון - מרכז מקצועי,clinic,34.9956951,32.8134748,True,False,34.99786856878578,32.810899565665345
הדר מרכז,בנק הפועלים,atm,34.9956991,32.8134483,False,False,34.99786856878578,32.810899565665345
הדר מרכז,,restaurant,34.9954705,32.8132431,True,True,34.99786856878578,32.810899565665345
הדר מרכז,,bank,34.9971026,32.8118829,False,False,34.99786856878578,32.810899565665345
הדר מרכז,,drinking_water,34.9976969,32.8113565,False,False,34.99786856878578,32.810899565665345
הדר מרכז,,supermarket,34.9971709,32.812306,True,False,34.99786856878578,32.810899565665345
הדר מרכז,,bank,34.9982549,32.8057994,False,False,34.99786856878578,32.810899565665345
הדר מרכז,קבוצת העתקות,copyshop,34.9963101,32.8093801,True,False,34.99786856878578,32.810899565665345
הדר מרכז,קונדיטוריה ליבל,bakery,35.0005747,32.8064152,True,True,34.99786856878578,32.810899565665345
הדר מרכז,לאומית,clinic,34.9978879,32.8155535,True,False,34.99786856878578,32.810899565665345
הדר מרכז,,community_centre,34.9992689,32.8075851,False,False,34.99786856878578,32.810899565665345
הדר מרכז,,drinking_water,34.999139,32.8136864,False,False,34.99786856878578,32.810899565665345
הדר מרכז,,bicycle_repair_station,34.9955203,32.8079252,False,False,34.99786856878578,32.810899565665345
הדר מרכז,,fountain,35.0002416,32.8072617,False,False,34.99786856878578,32.810899565665345
הדר מרכז,,dog_park,35.000023,32.8072255,False,False,34.99786856878578,32.810899565665345
הרצליה,,parking,34.9963416,32.8117706,False,False,34.99419729506256,32.81181988418833
הרצליה,,convenience,34.9945135,32.8122704,True,False,34.99419729506256,32.81181988418833
הרצליה,,pet,34.9940671,32.8118607,False,False,34.99419729506256,32.81181988418833
הרצליה,,fast_food,34.9933111,32.8125342,True,True,34.99419729506256,32.81181988418833
הרצליה,,convenience,34.9936963,32.8117909,True,False,34.99419729506256,32.81181988418833
הרצליה,,fast_food,34.9934285,32.8124214,True,True,34.99419729506256,32.81181988418833
הרצליה,,pet,34.9937242,32.8121179,False,False,34.99419729506256,32.81181988418833
הרצליה,,fast_food,34.9930791,32.8128154,True,True,34.99419729506256,32.81181988418833
הרצליה,,books,34.9949648,32.812646,True,False,34.99419729506256,32.81181988418833
הרצליה,קשת טעמים,convenience,34.9928845,32.8145318,True,False,34.99419729506256,32.81181988418833
הרצליה,,convenience,34.9922149,32.814342,True,False,34.99419729506256,32.81181988418833
הרצליה,,drinking_water,34.9957913,32.8098913,False,False,34.99419729506256,32.81181988418833
הרצליה,,drinking_water,34.9959999,32.8097753,False,False,34.99419729506256,32.81181988418833
הרצליה,,drinking_water,34.9969067,32.8099664,False,False,34.99419729506256,32.81181988418833
הרצליה,,dog_park,34.9971212,32.8102298,False,False,34.99419729506256,32.81181988418833
שוק תלפיות,,restaurant,34.9989467,32.8093938,True,True,35.00053280545939,32.809841563164895
שוק תלפיות,Loui M Apartments,guest_house,34.9991199,32.8107243,True,False,35.00053280545939,32.809841563164895
שוק תלפיות,המכבסה,cafe,34.999462,32.8096938,True,True,35.00053280545939,32.809841563164895
שוק תלפיות,,restaurant,35.0010607,32.8093995,True,True,35.00053280545939,32.809841563164895
שוק תלפיות,,bicycle_parking,34.9982302,32.8099195,False,False,35.00053280545939,32.809841563164895
שוק תלפיות,גולדמונד ספרים,books,35.0008653,32.8100597,True,False,35.00053280545939,32.809841563164895
שוק תלפיות,אוזבקצה,restaurant,34.9988485,32.8098647,True,True,35.00053280545939,32.809841563164895
"יל""ג",בית הכנסת הגדול (חיפה),attraction,35.00169,32.80649,False,False,35.00349245083872,32.80552014392766
גאולה,בית יעקב-תיכון,school,34.9999651,32.8035756,False,False,35.00137023899676,32.803058443040314
גאולה,,playground,34.9998971,32.8045158,False,False,35.00137023899676,32.803058443040314
גאולה,מתנ״ס הדר,community_centre,35.000338,32.8042959,False,False,35.00137023899676,32.803058443040314
רמת ויז'ניץ,,,,,,,35.003617815492504,32.798035447947875
מעונות גאולה,,,,,,,35.00011684700156,32.796550909172936
חליסה,,post_office,35.0082654,32.8028764,False,False,35.007375603426446,32.80116238882616
תל עמל,,attraction,35.0113705,32.7997887,False,False,35.01264552206233,32.798162833337344
תל עמל,,bench,35.0184283,32.7939342,False,False,35.01264552206233,32.798162833337344
נוה פז,סונול,fuel,35.0194831,32.7975537,False,False,35.02158523207418,32.793387034701034
נוה פז,,convenience,35.0200582,32.7964154,True,False,35.02158523207418,32.793387034701034
נוה פז,,convenience,35.0184637,32.7969818,True,False,35.02158523207418,32.793387034701034
נוה יוסף,,playground,35.0176224,32.7921968,False,False,35.01972325512646,32.79203092218188
נוה יוסף,,kiosk,35.0200758,32.7926747,True,False,35.01972325512646,32.79203092218188
נוה יוסף,סופר נירמן,convenience,35.0199785,32.7927253,True,False,35.01972325512646,32.79203092218188
נוה יוסף,,recycling,35.0173161,32.7924462,False,False,35.01972325512646,32.79203092218188
נוה יוסף,,viewpoint,35.0187774,32.7920534,False,False,35.01972325512646,32.79203092218188
נוה יוסף,,bench,35.0205942,32.7924242,False,False,35.01972325512646,32.79203092218188
נוה יוסף,,bench,35.0206272,32.7924043,False,False,35.01972325512646,32.79203092218188
נוה יוסף,,bench,35.0197465,32.7921504,False,False,35.01972325512646,32.79203092218188
נוה יוסף,,bench,35.0197988,32.7921289,False,False,35.01972325512646,32.79203092218188
נוה יוסף,,bench,35.0188,32.7918812,False,False,35.01972325512646,32.79203092218188
נוה יוסף,,bench,35.0206329,32.7907024,False,False,35.01972325512646,32.79203092218188
נוה יוסף,,bench,35.0206536,32.7906761,False,False,35.01972325512646,32.79203092218188
נוה יוסף,,bench,35.0206983,32.7906047,False,False,35.01972325512646,32.79203092218188
נוה יוסף,,bench,35.0207155,32.7905817,False,False,35.01972325512646,32.79203092218188
"מורדות נו""ש",,,,,,,35.02530196828711,32.78665600907119
נוה שאנן,סינמה קפה עממי,cinema,35.0196178,32.7886326,False,False,35.01915679680893,32.787706323386274
נוה שאנן,לה פאצ'ינה,restaurant,35.0203423,32.7872867,True,True,35.01915679680893,32.787706323386274
נוה שאנן,סונול,fuel,35.0245986,32.7813987,False,False,35.01915679680893,32.787706323386274
נוה שאנן,חאלד עדאווי,restaurant,35.0242037,32.7814399,True,True,35.01915679680893,32.787706323386274
נוה שאנן,,playground,35.0129812,32.7957787,False,False,35.01915679680893,32.787706323386274
נוה שאנן,,place_of_worship,35.0162378,32.7905073,False,False,35.01915679680893,32.787706323386274
נוה שאנן,,playground,35.0201056,32.7892304,False,False,35.01915679680893,32.787706323386274
נוה שאנן,,kiosk,35.0208685,32.7853792,True,False,35.01915679680893,32.787706323386274
נוה שאנן,גן אביטל,kindergarten,35.0208576,32.7858235,False,False,35.01915679680893,32.787706323386274
נוה שאנן,,recycling,35.0225189,32.7817646,False,False,35.01915679680893,32.787706323386274
נוה שאנן,,telephone,35.0221896,32.7849784,False,False,35.01915679680893,32.787706323386274
נוה שאנן,מאפיית ברכת משה,bakery,35.0207761,32.7867313,True,True,35.01915679680893,32.787706323386274
נוה שאנן,,playground,35.022901,32.7851243,False,False,35.01915679680893,32.787706323386274
נוה שאנן,,drinking_water,35.0227079,32.7852416,False,False,35.01915679680893,32.787706323386274
נוה שאנן,מרכז תרבות דתי לנוער,place_of_worship,35.0160078,32.7906409,False,False,35.01915679680893,32.787706323386274
נוה שאנן,בית מרקחת נוה שאנן,pharmacy,35.0156439,32.7910211,True,False,35.01915679680893,32.787706323386274
נוה שאנן,,doityourself,35.0190706,32.786377,False,False,35.01915679680893,32.787706323386274
נוה שאנן,Zanzara,restaurant,35.0203701,32.7877796,True,True,35.01915679680893,32.787706323386274
נוה שאנן,קונסטנטין,convenience,35.0222569,32.7851092,True,False,35.01915679680893,32.787706323386274
נוה שאנן,הגליל/הבריכה,place_of_worship,35.0189914,32.789181,False,False,35.01915679680893,32.787706323386274
נוה שאנן,,viewpoint,35.0229158,32.7860836,False,False,35.01915679680893,32.787706323386274
נוה שאנן,זיו התורה,place_of_worship,35.0161987,32.7918175,False,False,35.01915679680893,32.787706323386274
נוה שאנן,,playground,35.0158691,32.7907989,False,False,35.01915679680893,32.787706323386274
נוה שאנן,,bakery,35.0155851,32.7910896,True,True,35.01915679680893,32.787706323386274
נוה שאנן,Segal Kiosk,cafe,35.021081,32.785428,True,True,35.01915679680893,32.787706323386274
נוה שאנן,גן אורן,preschool,35.0193339,32.7865489,False,False,35.01915679680893,32.787706323386274
נוה שאנן,גן בתיה,preschool,35.0193927,32.7888684,False,False,35.01915679680893,32.787706323386274
נוה שאנן,רובן,fast_food,35.0203658,32.7870678,True,True,35.01915679680893,32.787706323386274
נוה שאנן,,recycling,35.0235217,32.7840835,False,False,35.01915679680893,32.787706323386274
נוה שאנן,נ נח,fast_food,35.0204461,32.787165,True,True,35.01915679680893,32.787706323386274
נוה שאנן,פיק אפ,outpost,35.0186199,32.7893455,False,False,35.01915679680893,32.787706323386274
נוה שאנן,המכולת,convenience,35.0140124,32.7925804,True,False,35.01915679680893,32.787706323386274
נוה שאנן,,kindergarten,35.0129505,32.7939577,False,False,35.01915679680893,32.787706323386274
נוה שאנן,,cafe,35.018475,32.7898292,True,True,35.01915679680893,32.787706323386274
נוה שאנן,,cafe,35.0182297,32.7898141,True,True,35.01915679680893,32.787706323386274
נוה שאנן,,kindergarten,35.0238255,32.7846327,False,False,35.01915679680893,32.787706323386274
נוה שאנן,"מרפאת שיניים ד""ר אברבוך",dentist,35.0177258,32.7907976,True,False,35.01915679680893,32.787706323386274
נוה שאנן,,drinking_water,35.0123275,32.7939348,False,False,35.01915679680893,32.787706323386274
נוה שאנן,,drinking_water,35.012,32.7937604,False,False,35.01915679680893,32.787706323386274
נוה שאנן,פרומנס,fast_food,35.0204472,32.7871122,True,True,35.01915679680893,32.787706323386274
נוה שאנן,,picnic_table,35.0184507,32.7895114,False,False,35.01915679680893,32.787706323386274
נוה שאנן,,picnic_table,35.0185,32.7894903,False,False,35.01915679680893,32.787706323386274
נוה שאנן,,bench,35.0186199,32.7897246,False,False,35.01915679680893,32.787706323386274
נוה שאנן,,picnic_table,35.0185073,32.7898687,False,False,35.01915679680893,32.787706323386274
נוה שאנן,,picnic_table,35.0185127,32.7898473,False,False,35.01915679680893,32.787706323386274
נוה שאנן,Galilo Market,supermarket,35.0217537,32.7864719,True,False,35.01915679680893,32.787706323386274
יזרעאליה,,parking,35.0063148,32.7897284,False,False,35.00840571864718,32.79309869384897
יזרעאליה,פז,fuel,35.0124005,32.7886182,False,False,35.00840571864718,32.79309869384897
יזרעאליה,Shufersal,supermarket,35.0099227,32.7959916,True,False,35.00840571864718,32.79309869384897
יזרעאליה,,parking,35.0093081,32.7949179,False,False,35.00840571864718,32.79309869384897
יזרעאליה,"On the gas station, Paz",car_wash,35.0127799,32.788607,False,False,35.00840571864718,32.79309869384897
יזרעאליה,,parking_entrance,35.0067025,32.7901009,False,False,35.00840571864718,32.79309869384897
יזרעאליה,,parking_entrance,35.0066455,32.7900699,False,False,35.00840571864718,32.79309869384897
יזרעאליה,יש בשכונה,supermarket,35.0138081,32.7901109,True,False,35.00840571864718,32.79309869384897
יזרעאליה,המשביר לצרכן,department_store,35.0066782,32.7896782,True,False,35.00840571864718,32.79309869384897
יזרעאליה,H&M,clothes,35.0068102,32.7898704,True,False,35.00840571864718,32.79309869384897
יזרעאליה,זארה,clothes,35.0090419,32.7896168,True,False,35.00840571864718,32.79309869384897
יזרעאליה,לי קופר,clothes,35.008474,32.7894762,True,False,35.00840571864718,32.79309869384897
יזרעאליה,קליגולה,shoes,35.0082784,32.7894088,True,False,35.00840571864718,32.79309869384897
יזרעאליה,סולוג,clothes,35.0081535,32.7894227,True,False,35.00840571864718,32.79309869384897
יזרעאליה,הוניגמן,clothes,35.0080215,32.7893573,True,False,35.00840571864718,32.79309869384897
יזרעאליה,בילאבונג,clothes,35.0085659,32.7899001,True,False,35.00840571864718,32.79309869384897
יזרעאליה,בודי שופ,beauty,35.0075124,32.7898744,True,False,35.00840571864718,32.79309869384897
יזרעאליה,סמארט,mobile_phone,35.0071754,32.789805,True,False,35.00840571864718,32.79309869384897
יזרעאליה,,toilets,35.0083111,32.7898189,False,False,35.00840571864718,32.79309869384897
יזרעאליה,ריקושט,yes,35.0080893,32.7893386,False,False,35.00840571864718,32.79309869384897
יזרעאליה,שטיפת רכב,car_wash,35.0124983,32.7886548,False,False,35.00840571864718,32.79309869384897
יזרעאליה,,post_office,35.0099715,32.7962264,False,False,35.00840571864718,32.79309869384897
יזרעאליה,Black,restaurant,35.0071843,32.7895312,True,True,35.00840571864718,32.79309869384897
יזרעאליה,מעדני רוסמן,supermarket,35.0117045,32.7921187,True,False,35.00840571864718,32.79309869384897
יזרעאליה,מעדני רוסמן,supermarket,35.0065781,32.7931887,True,False,35.00840571864718,32.79309869384897
יזרעאליה,,toilets,35.0106657,32.7893799,False,False,35.00840571864718,32.79309869384897
יזרעאליה,,pet,35.0101345,32.7960162,False,False,35.00840571864718,32.79309869384897
יזרעאליה,,viewpoint,35.0059714,32.795033,False,False,35.00840571864718,32.79309869384897
יזרעאליה,,playground,35.0116022,32.7885647,False,False,35.00840571864718,32.79309869384897
זיו,דראגסטור רודי'ס,convenience,35.0149351,32.7826889,True,False,35.01500037617836,32.783716842828404
זיו,,telephone,35.0174768,32.7852216,False,False,35.01500037617836,32.783716842828404
זיו,,telephone,35.0160789,32.7843873,False,False,35.01500037617836,32.783716842828404
זיו,,pharmacy,35.0153426,32.7828538,True,False,35.01500037617836,32.783716842828404
זיו,בנק הפועלים,bank,35.0151303,32.7833153,False,False,35.01500037617836,32.783716842828404
זיו,,doityourself,35.0155318,32.7827138,False,False,35.01500037617836,32.783716842828404
זיו,מאפה זיו,bakery,35.014791,32.7827791,True,True,35.01500037617836,32.783716842828404
זיו,,doityourself,35.015493,32.7827348,False,False,35.01500037617836,32.783716842828404
זיו,שופרסל,supermarket,35.0132577,32.7840548,True,False,35.01500037617836,32.783716842828404
זיו,,kindergarten,35.0145931,32.7859729,False,False,35.01500037617836,32.783716842828404
זיו,שמו,bakery,35.014701,32.78281,True,True,35.01500037617836,32.783716842828404
זיו,,recycling,35.0142573,32.7794561,False,False,35.01500037617836,32.783716842828404
זיו,,recycling,35.0154019,32.7823698,False,False,35.01500037617836,32.783716842828404
זיו,,recycling,35.0153894,32.7804936,False,False,35.01500037617836,32.783716842828404
זיו,פלאפל זהר,fast_food,35.0145754,32.7827832,True,True,35.01500037617836,32.783716842828404
זיו,,bench,35.0168341,32.7815096,False,False,35.01500037617836,32.783716842828404
זיו,,recycling,35.0167785,32.7806872,False,False,35.01500037617836,32.783716842828404
זיו,,recycling,35.0165452,32.7815959,False,False,35.01500037617836,32.783716842828404
זיו,הג'ונגל שלי,pet,35.0131633,32.7840726,False,False,35.01500037617836,32.783716842828404
זיו,,library,35.0172792,32.7851127,False,False,35.01500037617836,32.783716842828404
זיו,,place_of_worship,35.0158681,32.7859918,False,False,35.01500037617836,32.783716842828404
זיו,Domino's,fast_food,35.014916,32.7831252,True,True,35.01500037617836,32.783716842828404
זיו,פינקו,convenience,35.0178081,32.784922,True,False,35.01500037617836,32.783716842828404
זיו,,recycling,35.011903,32.7869145,False,False,35.01500037617836,32.783716842828404
זיו,,recycling,35.0144474,32.7852312,False,False,35.01500037617836,32.783716842828404
זיו,חורשת הבנים,park,35.0124699,32.7872447,False,False,35.01500037617836,32.783716842828404
זיו,,drinking_water,35.0139194,32.7855062,False,False,35.01500037617836,32.783716842828404
זיו,,shelter,35.0181194,32.7828633,False,False,35.01500037617836,32.783716842828404
זיו,,dog_park,35.0138572,32.7856266,False,False,35.01500037617836,32.783716842828404
זיו,גינת השבשבת,garden,35.0141438,32.7854116,False,False,35.01500037617836,32.783716842828404
זיו,,car_rental,35.0156292,32.7797013,True,False,35.01500037617836,32.783716842828404
זיו,,bicycle_parking,35.0173212,32.7821204,False,False,35.01500037617836,32.783716842828404
זיו,,attraction,35.0173588,32.7841635,False,False,35.01500037617836,32.783716842828404
זיו,,bookmaker,35.0165691,32.7835292,False,False,35.01500037617836,32.783716842828404
זיו,,bookmaker,35.0166816,32.7838296,False,False,35.01500037617836,32.783716842828404
זיו,ביגה,cafe,35.0155685,32.7826435,True,True,35.01500037617836,32.783716842828404
זיו,חומוס ברדיצ'ב,fast_food,35.0145077,32.7825852,True,True,35.01500037617836,32.783716842828404
זיו,נולה סוקס,pub,35.0149896,32.7825509,True,True,35.01500037617836,32.783716842828404
זיו,,bureau_de_change,35.0149991,32.7830697,True,False,35.01500037617836,32.783716842828404
זיו,טו בייק - To Bike,bicycle,35.0140851,32.7816821,True,False,35.01500037617836,32.783716842828404
קריית הטכניון,מכלול,stationery,35.0218585,32.7766247,True,False,35.022218675619186,32.77621160479975
קריית הטכניון,שני,cafe,35.0216328,32.7777181,True,True,35.022218675619186,32.77621160479975
קריית הטכניון,,parking,35.0248173,32.7773292,False,False,35.022218675619186,32.77621160479975
קריית הטכניון,חניון תעשיה וניהול,parking,35.024144,32.7743666,False,False,35.022218675619186,32.77621160479975
קריית הטכניון,,parking,35.017926,32.7795706,False,False,35.022218675619186,32.77621160479975
קריית הטכניון,,bench,35.0203572,32.7747471,False,False,35.022218675619186,32.77621160479975
קריית הטכניון,,bench,35.0204737,32.7752137,False,False,35.022218675619186,32.77621160479975
קריית הטכניון,,recycling,35.0220338,32.78054,False,False,35.022218675619186,32.77621160479975
קריית הטכניון,,bench,35.0204596,32.7749492,False,False,35.022218675619186,32.77621160479975
קריית הטכניון,,bench,35.0171728,32.779038,False,False,35.022218675619186,32.77621160479975
קריית הטכניון,,bench,35.0170318,32.7790156,False,False,35.022218675619186,32.77621160479975
קריית הטכניון,,bench,35.0171143,32.7790268,False,False,35.022218675619186,32.77621160479975
קריית הטכניון,,bench,35.0169707,32.7790089,False,False,35.022218675619186,32.77621160479975
קריית הטכניון,,bench,35.0263901,32.7787455,False,False,35.022218675619186,32.77621160479975
קריית הטכניון,,bench,35.0263438,32.7787527,False,False,35.022218675619186,32.77621160479975
קריית הטכניון,,bench,35.0184045,32.7790099,False,False,35.022218675619186,32.77621160479975
קריית הטכניון,,bench,35.0263653,32.7787482,False,False,35.022218675619186,32.77621160479975
קריית הטכניון,,bench,35.0183019,32.7790064,False,False,35.022218675619186,32.77621160479975
קריית הטכניון,,bench,35.0199491,32.7769141,False,False,35.022218675619186,32.77621160479975
קריית הטכניון,,bench,35.0200747,32.7767904,False,False,35.022218675619186,32.77621160479975
קריית הטכניון,,bench,35.016724,32.778161,False,False,35.022218675619186,32.77621160479975
קריית הטכניון,,bench,35.0180418,32.7776223,False,False,35.022218675619186,32.77621160479975
קריית הטכניון,,bench,35.0201118,32.7768334,False,False,35.022218675619186,32.77621160479975
קריית הטכניון,,bench,35.0177191,32.7778214,False,False,35.022218675619186,32.77621160479975
קריית הטכניון,,bench,35.0188286,32.7774082,False,False,35.022218675619186,32.77621160479975
קריית הטכניון,,bench,35.0200355,32.7768855,False,False,35.022218675619186,32.77621160479975
קריית הטכניון,,recycling,35.0180443,32.7781753,False,False,35.022218675619186,32.77621160479975
קריית הטכניון,,vending_machine,35.0176241,32.7786711,False,True,35.022218675619186,32.77621160479975
קריית הטכניון,,bench,35.0253123,32.7783605,False,False,35.022218675619186,32.77621160479975
קריית הטכניון,,bench,35.0246882,32.7781053,False,False,35.022218675619186,32.77621160479975
קריית הטכניון,,bench,35.0261073,32.77849,False,False,35.022218675619186,32.77621160479975
קריית הטכניון,,bench,35.0246573,32.7782681,False,False,35.022218675619186,32.77621160479975
קריית הטכניון,,bench,35.0263898,32.7784384,False,False,35.022218675619186,32.77621160479975
קריית הטכניון,,bench,35.0284245,32.7776289,False,False,35.022218675619186,32.77621160479975
קריית הטכניון,,bench,35.0266128,32.7782647,False,False,35.022218675619186,32.77621160479975
קריית הטכניון,,bench,35.026125,32.7781743,False,False,35.022218675619186,32.77621160479975
קריית הטכניון,,bench,35.0263608,32.7784531,False,False,35.022218675619186,32.77621160479975
קריית הטכניון,,bench,35.0266445,32.7782493,False,False,35.022218675619186,32.77621160479975
קריית הטכניון,,bench,35.0262098,32.7783294,False,False,35.022218675619186,32.77621160479975
קריית הטכניון,,bench,35.0262324,32.7784504,False,False,35.022218675619186,32.77621160479975
קריית הטכניון,,bench,35.0249995,32.7784009,False,False,35.022218675619186,32.77621160479975
קריית הטכניון,,bench,35.0246835,32.7782186,False,False,35.022218675619186,32.77621160479975
קריית הטכניון,,bench,35.0263317,32.7784612,False,False,35.022218675619186,32.77621160479975
קריית הטכניון,,bench,35.0263997,32.7783931,False,False,35.022218675619186,32.77621160479975
קריית הטכניון,,bench,35.0284742,32.7775208,False,False,35.022218675619186,32.77621160479975
קריית הטכניון,,bench,35.0282909,32.7770454,False,False,35.022218675619186,32.77621160479975
קריית הטכניון,,bench,35.0283112,32.7771534,False,False,35.022218675619186,32.77621160479975
קריית הטכניון,,viewpoint,35.0284539,32.7775743,False,False,35.022218675619186,32.77621160479975
קריית הטכניון,,vending_machine,35.01759,32.7786768,False,True,35.022218675619186,32.77621160479975
קריית הטכניון,סופר הטכניון,convenience,35.0175374,32.7782332,True,False,35.022218675619186,32.77621160479975
קריית הטכניון,,hairdresser,35.0184118,32.7783076,True,False,35.022218675619186,32.77621160479975
קריית הטכניון,,bench,35.024711,32.7784131,False,False,35.022218675619186,32.77621160479975
קריית הטכניון,,bench,35.024731,32.778331,False,False,35.022218675619186,32.77621160479975
קריית הטכניון,,vending_machine,35.0220023,32.7808062,False,True,35.022218675619186,32.77621160479975
קריית הטכניון,,vending_machine,35.0220678,32.780824,False,True,35.022218675619186,32.77621160479975
קריית הטכניון,,vending_machine,35.0220351,32.7808321,False,True,35.022218675619186,32.77621160479975
קריית הטכניון,,bench,35.0206644,32.7790786,False,False,35.022218675619186,32.77621160479975
קריית הטכניון,,swimming_pool,35.019135,32.7798772,False,False,35.022218675619186,32.77621160479975
קריית הטכניון,,recycling,35.015574,32.7777241,False,False,35.022218675619186,32.77621160479975
קריית הטכניון,,recycling,35.0193552,32.7765687,False,False,35.022218675619186,32.77621160479975
קריית הטכניון,,bench,35.0194507,32.7767471,False,False,35.022218675619186,32.77621160479975
קריית הטכניון,,bench,35.0198636,32.7762301,False,False,35.022218675619186,32.77621160479975
קריית הטכניון,,bench,35.0190745,32.7769269,False,False,35.022218675619186,32.77621160479975
קריית הטכניון,,bench,35.020681,32.7771434,False,False,35.022218675619186,32.77621160479975
קריית הטכניון,,bench,35.0211926,32.7776017,False,False,35.022218675619186,32.77621160479975
קריית הטכניון,,post_box,35.0225245,32.7760689,False,False,35.022218675619186,32.77621160479975
קריית הטכניון,,picnic_table,35.024225,32.7751183,False,False,35.022218675619186,32.77621160479975
קריית הטכניון,,bench,35.023704,32.7762199,False,False,35.022218675619186,32.77621160479975
קריית הטכניון,,picnic_table,35.0239695,32.7754197,False,False,35.022218675619186,32.77621160479975
קריית הטכניון,,bench,35.0238602,32.7752718,False,False,35.022218675619186,32.77621160479975
קריית הטכניון,,bench,35.0235209,32.7757643,False,False,35.022218675619186,32.77621160479975
קריית הטכניון,,bench,35.023311,32.7762322,False,False,35.022218675619186,32.77621160479975
קריית הטכניון,הבנק הבינלאומי,bank,35.0223587,32.776644,False,False,35.022218675619186,32.77621160479975
קריית הטכניון,מנזה,food_court,35.0227673,32.7764959,False,True,35.022218675619186,32.77621160479975
קריית הטכניון,Paper container,recycling,35.0200515,32.7764476,False,False,35.022218675619186,32.77621160479975
קריית הטכניון,,waste_basket,35.0200377,32.7764638,False,False,35.022218675619186,32.77621160479975
קריית הטכניון,,waste_basket,35.0192753,32.7765266,False,False,35.022218675619186,32.77621160479975
קריית הטכניון,,bench,35.0246941,32.7758732,False,False,35.022218675619186,32.77621160479975
קריית הטכניון,,bench,35.0258413,32.7761557,False,False,35.022218675619186,32.77621160479975
קריית הטכניון,"מועדון אדוה""ט",community_centre,35.0188962,32.778627,False,False,35.022218675619186,32.77621160479975
קריית הטכניון,מועדון קהילתי קנדה,community_centre,35.0218013,32.7808251,False,False,35.022218675619186,32.77621160479975
קריית הטכניון,מנדרין,cafe,35.0228181,32.778286,True,True,35.022218675619186,32.77621160479975
קריית הטכניון,פאב החונטה,pub,35.0228602,32.776465,True,True,35.022218675619186,32.77621160479975
קריית הטכניון,פיצה האט,restaurant,35.0227441,32.7765663,True,True,35.022218675619186,32.77621160479975
קריית הטכניון,Nuna,cafe,35.0253895,32.7763939,True,True,35.022218675619186,32.77621160479975
קריית הטכניון,Leo and Julia Forchheimer Guest House,guest_house,35.0210694,32.7785473,True,False,35.022218675619186,32.77621160479975
קריית הטכניון,Technion International Office,yes,35.0237529,32.7784311,False,False,35.022218675619186,32.77621160479975
קריית הטכניון,,college,35.028916,32.7768907,False,False,35.022218675619186,32.77621160479975
קריית הטכניון,,bench,35.0236074,32.7745758,False,False,35.022218675619186,32.77621160479975
קריית הטכניון,,attraction,35.0293387,32.7787016,False,False,35.022218675619186,32.77621160479975
קריית הטכניון,,parking_entrance,35.0176,32.7778938,False,False,35.022218675619186,32.77621160479975
קריית הטכניון,,bicycle_parking,35.0218697,32.777846,False,False,35.022218675619186,32.77621160479975
קריית הטכניון,,bicycle_parking,35.0159021,32.7785778,False,False,35.022218675619186,32.77621160479975
קריית הטכניון,,bicycle_parking,35.0231883,32.776745,False,False,35.022218675619186,32.77621160479975
קריית הטכניון,,bicycle_parking,35.0232768,32.7768871,False,False,35.022218675619186,32.77621160479975
קריית הטכניון,,bicycle_parking,35.0222817,32.7761384,False,False,35.022218675619186,32.77621160479975
קריית הטכניון,,bicycle_parking,35.02209,32.776725,False,False,35.022218675619186,32.77621160479975
קריית הטכניון,,bicycle_parking,35.0249933,32.7753761,False,False,35.022218675619186,32.77621160479975
קריית הטכניון,,bicycle_parking,35.0265206,32.7736746,False,False,35.022218675619186,32.77621160479975
קריית הטכניון,,bicycle_parking,35.024225,32.777069,False,False,35.022218675619186,32.77621160479975
קריית הטכניון,,bicycle_parking,35.0251101,32.7762774,False,False,35.022218675619186,32.77621160479975
קריית הטכניון,,bicycle_parking,35.0220765,32.7787107,False,False,35.022218675619186,32.77621160479975
קריית הטכניון,,bicycle_parking,35.0218995,32.778846,False,False,35.022218675619186,32.77621160479975
קריית הטכניון,,bicycle_parking,35.0225507,32.7791365,False,False,35.022218675619186,32.77621160479975
קריית הטכניון,,bicycle_parking,35.0193823,32.7790435,False,False,35.022218675619186,32.77621160479975
קריית הטכניון,,bicycle_parking,35.0184504,32.7790235,False,False,35.022218675619186,32.77621160479975
קריית הטכניון,,bicycle_parking,35.0223376,32.7748244,False,False,35.022218675619186,32.77621160479975
קריית הטכניון,,dog_park,35.023639,32.7754881,False,False,35.022218675619186,32.77621160479975
קריית הטכניון,,fitness_station,35.023084,32.776099,False,False,35.022218675619186,32.77621160479975
רמת אלון,,playground,35.0129725,32.7762208,False,False,35.01319101336258,32.77580448669551
רמת אלון,,bench,35.0118826,32.778401,False,False,35.01319101336258,32.77580448669551
רמת אלון,,bench,35.0119246,32.7776423,False,False,35.01319101336258,32.77580448669551
רמת אלון,,bench,35.012217,32.7785068,False,False,35.01319101336258,32.77580448669551
רמת אלון,,bench,35.0118575,32.7783563,False,False,35.01319101336258,32.77580448669551
רמת אלון,,bench,35.0128082,32.778804,False,False,35.01319101336258,32.77580448669551
רמת אלון,,bench,35.0119246,32.7783471,False,False,35.01319101336258,32.77580448669551
רמת אלון,,bench,35.0119328,32.7783769,False,False,35.01319101336258,32.77580448669551
רמת אלון,,bench,35.0120392,32.7784309,False,False,35.01319101336258,32.77580448669551
רמת אלון,,bench,35.0131561,32.7783417,False,False,35.01319101336258,32.77580448669551
רמת אלון,,bench,35.0132804,32.7783487,False,False,35.01319101336258,32.77580448669551
רמת אלון,,bench,35.0133736,32.7783539,False,False,35.01319101336258,32.77580448669551
רמת אלון,,bench,35.0130607,32.7783382,False,False,35.01319101336258,32.77580448669551
רמת אלון,,bench,35.0131811,32.7736566,False,False,35.01319101336258,32.77580448669551
רמת אלון,,bench,35.0124914,32.7767666,False,False,35.01319101336258,32.77580448669551
רמת אלון,,bench,35.0137156,32.7742394,False,False,35.01319101336258,32.77580448669551
רמת אלון,,bench,35.0124449,32.7769755,False,False,35.01319101336258,32.77580448669551
רמת אלון,,bench,35.0126255,32.7771546,False,False,35.01319101336258,32.77580448669551
רמת אלון,,bench,35.0150627,32.7752249,False,False,35.01319101336258,32.77580448669551
רמת אלון,,bench,35.0141993,32.7766134,False,False,35.01319101336258,32.77580448669551
רמת אלון,,bench,35.0141724,32.7765207,False,False,35.01319101336258,32.77580448669551
רמת אלון,,bench,35.0111472,32.7736897,False,False,35.01319101336258,32.77580448669551
רמת אלון,,bench,35.0147534,32.7741282,False,False,35.01319101336258,32.77580448669551
רמת אלון,,bench,35.0146765,32.7778066,False,False,35.01319101336258,32.77580448669551
רמת אלון,,bench,35.0146735,32.7775732,False,False,35.01319101336258,32.77580448669551
רמת אלון,,bench,35.0147742,32.7772962,False,False,35.01319101336258,32.77580448669551
רמת אלון,,bench,35.0144508,32.7768165,False,False,35.01319101336258,32.77580448669551
רמת אלון,,bench,35.0146155,32.7766062,False,False,35.01319101336258,32.77580448669551
רמת אלון,מסעדה,cafe,35.0137716,32.7753824,True,True,35.01319101336258,32.77580448669551
רמת אלון,,bench,35.0118036,32.7762619,False,False,35.01319101336258,32.77580448669551
רמת אלון,,bench,35.0117708,32.7758655,False,False,35.01319101336258,32.77580448669551
רמת אלון,ליקרלנד חנות משקאות,alcohol,35.0135199,32.7736869,False,False,35.01319101336258,32.77580448669551
רמת אלון,,parking_entrance,35.0149839,32.7788121,False,False,35.01319101336258,32.77580448669551
רמת אלון,,dog_park,35.0115454,32.7755713,False,False,35.01319101336258,32.77580448669551
רמות רמז,,playground,35.0096496,32.7786647,False,False,35.00858246172995,32.77917101174976
רמות רמז,סופר-פארם,pharmacy,35.0134189,32.7833491,True,False,35.00858246172995,32.77917101174976
רמות רמז,,parking,35.0081175,32.7820104,False,False,35.00858246172995,32.77917101174976
רמות רמז,"בי""ס פיכמן",school,35.0087195,32.776831,False,False,35.00858246172995,32.77917101174976
רמות רמז,,parking,35.0084298,32.776234,False,False,35.00858246172995,32.77917101174976
רמות רמז,,artwork,35.0092381,32.7784239,False,False,35.00858246172995,32.77917101174976
רמות רמז,mifgash sinai,convenience,35.0140815,32.78266,True,False,35.00858246172995,32.77917101174976
רמות רמז,,post_box,35.0083834,32.7758491,False,False,35.00858246172995,32.77917101174976
רמות רמז,,recycling,35.0096035,32.7807761,False,False,35.00858246172995,32.77917101174976
רמות רמז,,post_office,35.0097336,32.7805273,False,False,35.00858246172995,32.77917101174976
רמות רמז,,bench,35.010707,32.7775059,False,False,35.00858246172995,32.77917101174976
רמות רמז,,bench,35.0110642,32.7782382,False,False,35.00858246172995,32.77917101174976
רמות רמז,,bench,35.0107589,32.7776481,False,False,35.00858246172995,32.77917101174976
רמות רמז,,recycling,35.0107163,32.7779338,False,False,35.00858246172995,32.77917101174976
רמות רמז,,bench,35.0105544,32.7778676,False,False,35.00858246172995,32.77917101174976
רמות רמז,,bench,35.0107214,32.778006,False,False,35.00858246172995,32.77917101174976
רמות רמז,,bench,35.0107484,32.7781278,False,False,35.00858246172995,32.77917101174976
רמות רמז,,bench,35.0102646,32.7776859,False,False,35.00858246172995,32.77917101174976
רמות רמז,,recycling,35.00993,32.7752739,False,False,35.00858246172995,32.77917101174976
רמות רמז,,bench,35.0104411,32.7755057,False,False,35.00858246172995,32.77917101174976
רמות רמז,,bench,35.0105688,32.7754633,False,False,35.00858246172995,32.77917101174976
רמות רמז,,bench,35.0105352,32.7755764,False,False,35.00858246172995,32.77917101174976
רמות רמז,,recycling,35.0128941,32.7790917,False,False,35.00858246172995,32.77917101174976
רמות רמז,,bench,35.0110411,32.7792043,False,False,35.00858246172995,32.77917101174976
רמות רמז,,bench,35.0105355,32.7799777,False,False,35.00858246172995,32.77917101174976
רמות רמז,,bench,35.0094234,32.7765445,False,False,35.00858246172995,32.77917101174976
רמות רמז,,bench,35.0097718,32.7775016,False,False,35.00858246172995,32.77917101174976
רמות רמז,,bench,35.0097936,32.779372,False,False,35.00858246172995,32.77917101174976
רמות רמז,,bench,35.0098629,32.7793663,False,False,35.00858246172995,32.77917101174976
רמות רמז,,post_office,35.0132104,32.7823264,False,False,35.00858246172995,32.77917101174976
רמות רמז,בר כל,supermarket,35.0139595,32.78314,True,False,35.00858246172995,32.77917101174976
רמות רמז,,park,35.0039583,32.7768095,False,False,35.00858246172995,32.77917101174976
רמות רמז,,recycling,35.0123369,32.7798717,False,False,35.00858246172995,32.77917101174976
רמות רמז,בנק מזרחי טפחות,bank,35.0139306,32.7830896,False,False,35.00858246172995,32.77917101174976
רמות רמז,lucky drugstore,supermarket,35.0097415,32.7804529,True,False,35.00858246172995,32.77917101174976
רמות רמז,,parking,35.0089178,32.7772211,False,False,35.00858246172995,32.77917101174976
רמת חן,,parking,35.0072894,32.7885676,False,False,35.00858824806475,32.7857545969451
רמת חן,דור אלון,fuel,35.0073429,32.7887118,False,False,35.00858824806475,32.7857545969451
רמת חן,Ramat Hen,playground,35.0081806,32.7853132,False,False,35.00858824806475,32.7857545969451
רמת ספיר,דלק,fuel,35.0027635,32.7888445,False,False,35.00429474011561,32.78692014956984
רמת ספיר,מרכז מסחרי - רמת ספיר,mall,35.0043509,32.7843076,False,False,35.00429474011561,32.78692014956984
רמת ספיר,,waste_basket,35.0049644,32.7878173,False,False,35.00429474011561,32.78692014956984
רמת ספיר,,bench,35.0050137,32.7878091,False,False,35.00429474011561,32.78692014956984
רמת ספיר,שופרשל שלי רמת ספיר,supermarket,35.0041971,32.784265,True,False,35.00429474011561,32.78692014956984
רמת ספיר,בית מרקחת ארמון,pharmacy,35.004164,32.7843713,True,False,35.00429474011561,32.78692014956984
גבעת זמר,,,,,,,35.00268448331703,32.78226738914688
רמת בן גוריון,ויוינו,restaurant,34.9987326,32.7865998,True,True,34.997123245592086,32.785387338512585
רמת בן גוריון,פז,fuel,34.9984085,32.7865156,False,False,34.997123245592086,32.785387338512585
רמת בן גוריון,,fast_food,34.9983354,32.7863531,True,True,34.997123245592086,32.785387338512585
רמת בן גוריון,,car_wash,34.9986435,32.7863362,False,False,34.997123245592086,32.785387338512585
רמת בן גוריון,,kindergarten,34.9968081,32.7857952,False,False,34.997123245592086,32.785387338512585
רמת בן גוריון,,post_office,34.9963055,32.7848662,False,False,34.997123245592086,32.785387338512585
רמת בן גוריון,תחנה לבריאות המשפחה רוממה,clinic,34.996869,32.7857197,True,False,34.997123245592086,32.785387338512585
רמת בן גוריון,,bank,34.9964701,32.7846521,False,False,34.997123245592086,32.785387338512585
רמת בן גוריון,,kiosk,34.9964113,32.7847938,True,False,34.997123245592086,32.785387338512585
רמת בן גוריון,,supermarket,34.9965759,32.7845895,True,False,34.997123245592086,32.785387338512585
רמת בן גוריון,,drinking_water,34.9944702,32.7870832,False,False,34.997123245592086,32.785387338512585
רמת בן גוריון,,convenience,34.995455,32.7837158,True,False,34.997123245592086,32.785387338512585
רמת בן גוריון,,pet,34.9964983,32.7847332,False,False,34.997123245592086,32.785387338512585
רמת בן גוריון,,fitness_centre,34.9966029,32.7847228,True,False,34.997123245592086,32.785387338512585
רמת בן גוריון,,hardware,34.9965093,32.7848251,True,False,34.997123245592086,32.785387338512585
רמת בן גוריון,,drinking_water,34.997044,32.7833117,False,False,34.997123245592086,32.785387338512585
רמת בן גוריון,,drinking_water,35.0003222,32.7849429,False,False,34.997123245592086,32.785387338512585
רמת בן גוריון,,drinking_water,35.000184,32.7849375,False,False,34.997123245592086,32.785387338512585
רוממה,Hotel Marom,hotel,34.9995137,32.7889092,True,False,34.99655731005572,32.78991636105646
רוממה,KSP Computers,computer,35.0001416,32.7884959,True,False,34.99655731005572,32.78991636105646
רוממה,,drinking_water,34.9908471,32.7939399,False,False,34.99655731005572,32.78991636105646
רוממה,,drinking_water,35.0012228,32.7897116,False,False,34.99655731005572,32.78991636105646
אחוזה,,post_office,34.9857984,32.7881724,False,False,34.98542580971971,32.78553689816553
אחוזה,"בי""ס איינשטיין - חטיבה צעירה",school,34.9996902,32.7776829,False,False,34.98542580971971,32.78553689816553
אחוזה,חבר על ארבע,pet,34.9868298,32.7851831,False,False,34.98542580971971,32.78553689816553
אחוזה,Medivet,veterinary,34.988953,32.7832647,True,False,34.98542580971971,32.78553689816553
אחוזה,פיצה דלאל,restaurant,34.9859058,32.7849903,True,True,34.98542580971971,32.78553689816553
אחוזה,,toilets,34.9873485,32.7849078,False,False,34.98542580971971,32.78553689816553
אחוזה,,viewpoint,34.9786287,32.789573,False,False,34.98542580971971,32.78553689816553
אחוזה,שווארמה קטנה וטעימה,fast_food,34.9860939,32.7843523,True,True,34.98542580971971,32.78553689816553
אחוזה,Sinta Express,fast_food,34.9859171,32.7874661,True,True,34.98542580971971,32.78553689816553
אחוזה,סינטה בר,restaurant,34.9863766,32.7879051,True,True,34.98542580971971,32.78553689816553
אחוזה,,bench,34.9845516,32.7855018,False,False,34.98542580971971,32.78553689816553
אחוזה,Roladin Horev,bakery,34.9861482,32.7847164,True,True,34.98542580971971,32.78553689816553
אחוזה,מימי,hairdresser,34.9956658,32.7825628,True,False,34.98542580971971,32.78553689816553
אחוזה,,playground,34.9958993,32.78225,False,False,34.98542580971971,32.78553689816553
אחוזה,משרדי פיז בעל''מ,company,34.9954074,32.7789111,True,False,34.98542580971971,32.78553689816553
אחוזה,,pub,34.9868709,32.7896285,True,True,34.98542580971971,32.78553689816553
אחוזה,Bitcoin Change,bureau_de_change,34.9861435,32.7845967,True,False,34.98542580971971,32.78553689816553
אחוזה,,bench,34.9868655,32.7900701,False,False,34.98542580971971,32.78553689816553
אחוזה,,bench,34.9868709,32.7900187,False,False,34.98542580971971,32.78553689816553
אחוזה,,bench,34.9868684,32.7900446,False,False,34.98542580971971,32.78553689816553
אחוזה,,bench,34.9959538,32.7826655,False,False,34.98542580971971,32.78553689816553
אחוזה,דואר ישראל,post_office,34.9863458,32.7884796,False,False,34.98542580971971,32.78553689816553
אחוזה,Minimax,variety_store,34.9864855,32.7894907,True,False,34.98542580971971,32.78553689816553
אחוזה,,recycling,34.989151,32.7836768,False,False,34.98542580971971,32.78553689816553
אחוזה,,recycling,34.9981239,32.778721,False,False,34.98542580971971,32.78553689816553
אחוזה,סלון אימאג',hairdresser,34.9909857,32.7920119,True,False,34.98542580971971,32.78553689816553
אחוזה,מכבי - חורב,clinic,34.9874425,32.7847941,True,False,34.98542580971971,32.78553689816553
אחוזה,מכבי פארם - חורב,pharmacy,34.9856159,32.7855315,True,False,34.98542580971971,32.78553689816553
רמת אשכול,,drinking_water,34.9855748,32.7792266,False,False,34.980838217396865,32.77899520083168
רמת אשכול,,playground,34.9859389,32.7795563,False,False,34.980838217396865,32.77899520083168
רמת אשכול,,place_of_worship,34.9850705,32.7801025,False,False,34.980838217396865,32.77899520083168
רמת אשכול,,drinking_water,34.984415,32.779167,False,False,34.980838217396865,32.77899520083168
רמת אשכול,שופרסל אקספרס,supermarket,34.9852966,32.7799424,True,False,34.980838217396865,32.77899520083168
רמת אשכול,,drinking_water,34.9836044,32.7789469,False,False,34.980838217396865,32.77899520083168
רמת אשכול,אלדר,kindergarten,34.9815315,32.7796109,False,False,34.980838217396865,32.77899520083168
רמת אשכול,,post_box,34.9835933,32.7808896,False,False,34.980838217396865,32.77899520083168
רמת אשכול,,hairdresser,34.9815011,32.7797801,True,False,34.980838217396865,32.77899520083168
רמת אשכול,מחנה פרויד,viewpoint,34.9791576,32.7786238,False,False,34.980838217396865,32.77899520083168
רמת אשכול,,drinking_water,34.9870926,32.7777405,False,False,34.980838217396865,32.77899520083168
רמת אשכול,,drinking_water,34.9868198,32.7773782,False,False,34.980838217396865,32.77899520083168
רמת אשכול,,dog_park,34.9834409,32.7810872,False,False,34.980838217396865,32.77899520083168
רמת בגין,,playground,34.991194,32.774149,False,False,34.98566539591861,32.77459026124072
רמת בגין,,drinking_water,34.9937681,32.7760145,False,False,34.98566539591861,32.77459026124072
רמת בגין,,kindergarten,34.9927192,32.7773143,False,False,34.98566539591861,32.77459026124072
רמת בגין,עין עובדיה,attraction,34.9936339,32.7724339,False,False,34.98566539591861,32.77459026124072
רמת בגין,,drinking_water,34.9903729,32.7732977,False,False,34.98566539591861,32.77459026124072
רמת בגין,המרפסת,viewpoint,34.9886863,32.7716222,False,False,34.98566539591861,32.77459026124072
רמת בגין,הנדנדה,attraction,34.9830618,32.7729946,False,False,34.98566539591861,32.77459026124072
רמת בגין,,viewpoint,34.9737333,32.7729774,False,False,34.98566539591861,32.77459026124072
רמת בגין,,viewpoint,34.9732928,32.7727711,False,False,34.98566539591861,32.77459026124072
רמת גולדה,בנק הבינלאומי,bank,35.0019235,32.7743982,False,False,34.999988424784284,32.77292218741563
רמת גולדה,סופר מאי,convenience,35.0042452,32.7715584,True,False,34.999988424784284,32.77292218741563
רמת גולדה,מצפור תמר,viewpoint,35.0014477,32.775219,False,False,34.999988424784284,32.77292218741563
רמת גולדה,Gan Mishakim Lezecher Lior Farkash,playground,34.9987031,32.7772525,False,False,34.999988424784284,32.77292218741563
רמת אלמוגי,,playground,35.008188,32.7710196,False,False,35.005922893794065,32.77395811808966
רמת אלמוגי,,playground,35.0022861,32.7752741,False,False,35.005922893794065,32.77395811808966
רמת אלמוגי,,bank,35.0005468,32.7773846,False,False,35.005922893794065,32.77395811808966
סביוני הכרמל,,playground,35.0104962,32.7690037,False,False,35.01189110807085,32.76962828077561
סביוני הכרמל,,playground,35.0134554,32.7680449,False,False,35.01189110807085,32.76962828077561
סביוני הכרמל,סונול,fuel,35.0074769,32.769142,False,False,35.01189110807085,32.76962828077561
סביוני הכרמל,,parking,35.0126426,32.7728834,False,False,35.01189110807085,32.76962828077561
סביוני הכרמל,פיצה פדאל,fast_food,35.0131771,32.7733382,True,True,35.01189110807085,32.76962828077561
סביוני הכרמל,בית קפה הפינה,cafe,35.0131763,32.7731321,True,True,35.01189110807085,32.76962828077561
סביוני הכרמל,בריכת שחיה מגדלי שרביב,swimming_pool,35.0107516,32.7735561,False,False,35.01189110807085,32.76962828077561
סביוני הכרמל,,drinking_water,35.0142961,32.7665022,False,False,35.01189110807085,32.76962828077561
סביוני הכרמל,SoGood,convenience,35.0075664,32.7690469,True,False,35.01189110807085,32.76962828077561
סביוני הכרמל,ארקפה,cafe,35.0132294,32.7669036,True,True,35.01189110807085,32.76962828077561
סביוני הכרמל,אייססלון,ice_cream,35.0134436,32.7668891,True,True,35.01189110807085,32.76962828077561
סביוני הכרמל,אזומאמי,restaurant,35.0133224,32.7669243,True,True,35.01189110807085,32.76962828077561
סביוני הכרמל,פינת היער,picnic_site,35.0130473,32.7725964,False,False,35.01189110807085,32.76962828077561
הוד הכרמל,קופת חולים כללית דניה,doctors,35.0032045,32.7687091,False,False,34.99288888190814,32.765666807115906
הוד הכרמל,,post_office,35.0034365,32.7687104,False,False,34.99288888190814,32.765666807115906
הוד הכרמל,,place_of_worship,35.0002127,32.7670607,False,False,34.99288888190814,32.765666807115906
הוד הכרמל,מועדון הספורט הוד הכרמל,sports_centre,34.9914184,32.7691402,False,False,34.99288888190814,32.765666807115906
הוד הכרמל,,drinking_water,35.0068338,32.7695018,False,False,34.99288888190814,32.765666807115906
הוד הכרמל,Shaul Salee,playground,35.0068175,32.7695471,False,False,34.99288888190814,32.765666807115906
הוד הכרמל,My Coffee,restaurant,34.9926587,32.7670225,True,True,34.99288888190814,32.765666807115906
הוד הכרמל,,playground,34.9906325,32.7661767,False,False,34.99288888190814,32.765666807115906
הוד הכרמל,,playground,34.9859252,32.7662331,False,False,34.99288888190814,32.765666807115906
הוד הכרמל,,supermarket,35.0036188,32.7685982,True,False,34.99288888190814,32.765666807115906
הוד הכרמל,עמוס אמנון,doityourself,35.0036201,32.7686603,False,False,34.99288888190814,32.765666807115906
הוד הכרמל,קונדיטורית פאי,cafe,35.0036201,32.7687764,True,True,34.99288888190814,32.765666807115906
הוד הכרמל,בנק לאומי,bank,35.0036188,32.7688497,False,False,34.99288888190814,32.765666807115906
הוד הכרמל,,drinking_water,35.0055919,32.7692412,False,False,34.99288888190814,32.765666807115906
הוד הכרמל,Honorary Consulate of the Czech Republic,diplomatic,34.9934397,32.7675598,False,False,34.99288888190814,32.765666807115906
הוד הכרמל,Studio 56,hairdresser,34.9927843,32.7670729,True,False,34.99288888190814,32.765666807115906
הוד הכרמל,Garderoba,clothes,34.9927239,32.7670571,True,False,34.99288888190814,32.765666807115906
אוניברסיטת חיפה,Elite Coffee,cafe,35.0183221,32.7619743,True,True,35.02080573589097,32.76395372781427
אוניברסיטת חיפה,,post_office,35.0189091,32.7616794,False,False,35.02080573589097,32.76395372781427
אוניברסיטת חיפה,איסתא,travel_agency,35.0187994,32.7616697,True,False,35.02080573589097,32.76395372781427
אוניברסיטת חיפה,"מוזיאון הכט לארכאולוגיה של א""י",museum,35.018062,32.7632182,False,False,35.02080573589097,32.76395372781427
אוניברסיטת חיפה,קפה גרג,cafe,35.0198544,32.7619369,True,True,35.02080573589097,32.76395372781427
אוניברסיטת חיפה,ארומה,cafe,35.0208602,32.7612625,True,True,35.02080573589097,32.76395372781427
אוניברסיטת חיפה,,bench,35.0261987,32.7662568,False,False,35.02080573589097,32.76395372781427
אוניברסיטת חיפה,,bench,35.0262155,32.7663178,False,False,35.02080573589097,32.76395372781427
אוניברסיטת חיפה,Younes & Soraya Nazarian Library,library,35.0182601,32.7630571,False,False,35.02080573589097,32.76395372781427
אוניברסיטת חיפה,,viewpoint,35.0176988,32.7630091,False,False,35.02080573589097,32.76395372781427
